<?xml version="1.0" encoding="UTF-8"?>
<osm version="0.6">
<node lat="47.37214655908547" lon="15.091176442365398" id="-108">
  <tag k="addr:housenumber" v="14"></tag>
  <tag k="contact:tel" v="+43 59133 6390800"></tag>
  <tag k="addr:city" v="Leoben"></tag>
  <tag k="addr:postcode" v="8700"></tag>
  <tag k="addr:street" v="Josef Heißl-Str."></tag>
  <tag k="amenity" v="police"></tag>
  <tag k="ref:ogdsteiermark" v="1084"></tag>
  <tag k="note:type" v="Polizeiinspektion/ Stadtleitstelle"></tag>
</node>
<node lat="47.39460568928004" lon="15.163252283515899" id="-109">
  <tag k="addr:housenumber" v="6"></tag>
  <tag k="contact:tel" v="+43 59133 6325"></tag>
  <tag k="addr:city" v="Niklasdorf"></tag>
  <tag k="addr:postcode" v="8712"></tag>
  <tag k="addr:street" v="Bergstraße"></tag>
  <tag k="amenity" v="police"></tag>
  <tag k="ref:ogdsteiermark" v="1085"></tag>
  <tag k="note:type" v="Polizeiinspektion / Landeskriminalamt-Außenstelle"></tag>
</node>
<node lat="47.29432608103438" lon="15.077494035229355" id="-120">
  <tag k="addr:housenumber" v="33"></tag>
  <tag k="contact:tel" v="+43 59133 6328"></tag>
  <tag k="addr:city" v="St. Michael/Obersteiermark"></tag>
  <tag k="addr:postcode" v="8770"></tag>
  <tag k="addr:street" v="Hinterlainsach"></tag>
  <tag k="amenity" v="police"></tag>
  <tag k="ref:ogdsteiermark" v="1096"></tag>
  <tag k="note:type" v="Autobahnpolizeiinspektion"></tag>
</node>
<node lat="47.33774645357594" lon="15.016356070476258" id="-121">
  <tag k="addr:housenumber" v="46"></tag>
  <tag k="contact:tel" v="+43 59133 6320"></tag>
  <tag k="addr:city" v="St. Michael/Obersteiermark"></tag>
  <tag k="addr:postcode" v="8770"></tag>
  <tag k="addr:street" v="Raiffeisenstraße"></tag>
  <tag k="amenity" v="police"></tag>
  <tag k="ref:ogdsteiermark" v="1097"></tag>
  <tag k="note:type" v="Bezirkspolizeikommando/Alpine Einsatzgruppe Leoben"></tag>
</node>
<node lat="47.398592179101556" lon="14.83132054527417" id="-122">
  <tag k="addr:housenumber" v="46"></tag>
  <tag k="contact:tel" v="+43 59133 6323"></tag>
  <tag k="addr:city" v="Mautern/Steiermark"></tag>
  <tag k="addr:postcode" v="8774"></tag>
  <tag k="addr:street" v="Hauptstraße"></tag>
  <tag k="amenity" v="police"></tag>
  <tag k="ref:ogdsteiermark" v="1098"></tag>
  <tag k="note:type" v="Polizeiinspektion"></tag>
</node>
<node lat="47.542526023176855" lon="14.889944822885123" id="-126">
  <tag k="addr:housenumber" v="34"></tag>
  <tag k="contact:tel" v="+43 59133 6321"></tag>
  <tag k="addr:city" v="Eisenerz"></tag>
  <tag k="addr:postcode" v="8790"></tag>
  <tag k="addr:street" v="Hans-von-der-Sann-Straße"></tag>
  <tag k="amenity" v="police"></tag>
  <tag k="ref:ogdsteiermark" v="1102"></tag>
  <tag k="note:type" v="Polizeiinspektion"></tag>
</node>
<node lat="47.39579599449701" lon="15.037476899907462" id="-127">
  <tag k="addr:housenumber" v="5H"></tag>
  <tag k="contact:tel" v="+43 59133 6326"></tag>
  <tag k="addr:city" v="St. Peter-Freienstein"></tag>
  <tag k="addr:postcode" v="8792"></tag>
  <tag k="addr:street" v="Hauptstraße"></tag>
  <tag k="amenity" v="police"></tag>
  <tag k="ref:ogdsteiermark" v="1103"></tag>
  <tag k="note:type" v="Polizeiinspektion"></tag>
</node>
<node lat="47.431998401749595" lon="15.006185905514807" id="-128">
  <tag k="addr:housenumber" v="124a"></tag>
  <tag k="contact:tel" v="+43 59133 6327"></tag>
  <tag k="addr:city" v="Trofaiach"></tag>
  <tag k="addr:postcode" v="8793"></tag>
  <tag k="addr:street" v="Hauptstraße"></tag>
  <tag k="amenity" v="police"></tag>
  <tag k="ref:ogdsteiermark" v="1104"></tag>
  <tag k="note:type" v="Polizeiinspektion"></tag>
</node>
<node lat="47.48650749301806" lon="14.991991036912223" id="-129">
  <tag k="addr:housenumber" v="108a"></tag>
  <tag k="contact:tel" v="+43 59133 6329"></tag>
  <tag k="addr:city" v="Vordernberg"></tag>
  <tag k="addr:postcode" v="8794"></tag>
  <tag k="addr:street" v="Hauptstraße"></tag>
  <tag k="amenity" v="police"></tag>
  <tag k="ref:ogdsteiermark" v="1105"></tag>
  <tag k="note:type" v="Polizeiinspektion"></tag>
</node>
<node lat="47.60603308911365" lon="14.744760455219144" id="-138">
  <tag k="addr:housenumber" v="15"></tag>
  <tag k="contact:tel" v="+43 59133 6322"></tag>
  <tag k="addr:city" v="Hieflau"></tag>
  <tag k="addr:postcode" v="8920"></tag>
  <tag k="addr:street" v="Hauptstraße"></tag>
  <tag k="amenity" v="police"></tag>
  <tag k="ref:ogdsteiermark" v="1114"></tag>
  <tag k="note:type" v="Polizeiinspektion"></tag>
</node>
<node lat="47.38121853198729" lon="15.09155387822853" id="-152">
  <tag k="addr:housenumber" v="8"></tag>
  <tag k="contact:tel" v="+43 59133 6392100"></tag>
  <tag k="addr:city" v="Leoben"></tag>
  <tag k="addr:postcode" v="8700"></tag>
  <tag k="addr:street" v="Erzherzog Johann Straße"></tag>
  <tag k="amenity" v="police"></tag>
  <tag k="ref:ogdsteiermark" v="1128"></tag>
  <tag k="note:type" v="Polizeiinspektion"></tag>
</node>
</osm>