<?xml version="1.0" encoding="UTF-8"?>
<osm version="0.6">
<node lat="47.124339249022015" lon="15.607830419273183" id="-155">
  <tag k="addr:housenumber" v="11"></tag>
  <tag k="contact:tel" v="+43 59133 6132"></tag>
  <tag k="addr:city" v="Eggersdorf/Graz"></tag>
  <tag k="addr:postcode" v="8063"></tag>
  <tag k="addr:street" v="Hauptstraße"></tag>
  <tag k="amenity" v="police"></tag>
  <tag k="ref:ogdsteiermark" v="1131"></tag>
  <tag k="note:type" v="Polizeiinspektion"></tag>
</node>
<node lat="47.01158272178528" lon="15.443025073056448" id="-156">
  <tag k="addr:housenumber" v="2"></tag>
  <tag k="contact:tel" v="+43 59133 6133"></tag>
  <tag k="addr:city" v="Feldkirchen/Graz"></tag>
  <tag k="addr:postcode" v="8073"></tag>
  <tag k="addr:street" v="Marktplatz"></tag>
  <tag k="amenity" v="police"></tag>
  <tag k="ref:ogdsteiermark" v="1132"></tag>
  <tag k="note:type" v="Polizeiinspektion"></tag>
</node>
<node lat="46.962199231295166" lon="15.479475036942" id="-157">
  <tag k="addr:housenumber" v="137"></tag>
  <tag k="contact:tel" v="+43 59133 6142"></tag>
  <tag k="addr:city" v="Kalsdorf/Graz"></tag>
  <tag k="addr:postcode" v="8401"></tag>
  <tag k="addr:street" v="Hauptstraße"></tag>
  <tag k="amenity" v="police"></tag>
  <tag k="ref:ogdsteiermark" v="1133"></tag>
  <tag k="note:type" v="Polizeiinspektion"></tag>
</node>
<node lat="47.21750952232637" lon="15.40526388456613" id="-158">
  <tag k="addr:housenumber" v="16"></tag>
  <tag k="contact:tel" v="+43 59133 6151"></tag>
  <tag k="addr:city" v="Semriach"></tag>
  <tag k="addr:postcode" v="8102"></tag>
  <tag k="addr:street" v="Markt"></tag>
  <tag k="amenity" v="police"></tag>
  <tag k="ref:ogdsteiermark" v="1134"></tag>
  <tag k="note:type" v="Polizeiinspektion"></tag>
</node>
<node lat="47.01053451215211" lon="15.403686731261587" id="-16">
  <tag k="addr:housenumber" v="21"></tag>
  <tag k="contact:tel" v="+43 59133 6130"></tag>
  <tag k="addr:city" v="Seiersberg"></tag>
  <tag k="addr:postcode" v="8054"></tag>
  <tag k="addr:street" v="Feldkirchner Straße"></tag>
  <tag k="amenity" v="police"></tag>
  <tag k="ref:ogdsteiermark" v="992"></tag>
  <tag k="note:type" v="Bezirkspolizeikommando / Polizeiinspektion/ Bezirk"></tag>
</node>
<node lat="47.1605201000626" lon="15.533392455023034" id="-17">
  <tag k="addr:housenumber" v="7"></tag>
  <tag k="contact:tel" v="+43 59133 6143"></tag>
  <tag k="addr:city" v="Kumberg"></tag>
  <tag k="addr:postcode" v="8062"></tag>
  <tag k="addr:street" v="Meierhöfenstraße"></tag>
  <tag k="amenity" v="police"></tag>
  <tag k="ref:ogdsteiermark" v="993"></tag>
  <tag k="note:type" v="Polizeiinspektion"></tag>
</node>
<node lat="46.99140417056782" lon="15.508012010723585" id="-18">
  <tag k="addr:housenumber" v="1"></tag>
  <tag k="contact:tel" v="+43 59133 6139"></tag>
  <tag k="addr:city" v="Hausmannstätten/Graz"></tag>
  <tag k="addr:postcode" v="8071"></tag>
  <tag k="addr:street" v="Marktplatz"></tag>
  <tag k="amenity" v="police"></tag>
  <tag k="ref:ogdsteiermark" v="994"></tag>
  <tag k="note:type" v="Polizeiinspektion"></tag>
</node>
<node lat="46.99547791730381" lon="15.444215993844864" id="-19">
  <tag k="addr:housenumber" v="51"></tag>
  <tag k="contact:tel" v="+43 59133 6134"></tag>
  <tag k="addr:city" v="Feldkirchen/Graz"></tag>
  <tag k="addr:postcode" v="8073"></tag>
  <tag k="addr:street" v="Flughafenstraße"></tag>
  <tag k="amenity" v="police"></tag>
  <tag k="ref:ogdsteiermark" v="995"></tag>
  <tag k="note:type" v="Grenzpolizeiinspektion (GREKO)"></tag>
</node>
<node lat="47.02916267305171" lon="15.494772329966201" id="-20">
  <tag k="addr:housenumber" v="2"></tag>
  <tag k="contact:tel" v="+43 59133 6146"></tag>
  <tag k="addr:city" v="Raaba"></tag>
  <tag k="addr:postcode" v="8074"></tag>
  <tag k="addr:street" v="Dr.-Auner-Straße"></tag>
  <tag k="amenity" v="police"></tag>
  <tag k="ref:ogdsteiermark" v="996"></tag>
  <tag k="note:type" v="Polizeiinspektion"></tag>
</node>
<node lat="47.12726639894822" lon="15.317581377302332" id="-25">
  <tag k="addr:housenumber" v="3"></tag>
  <tag k="contact:tel" v="+43 59133 6137"></tag>
  <tag k="addr:city" v="Gratwein"></tag>
  <tag k="addr:postcode" v="8112"></tag>
  <tag k="addr:street" v="Bahnhofsplatz"></tag>
  <tag k="amenity" v="police"></tag>
  <tag k="ref:ogdsteiermark" v="1001"></tag>
  <tag k="note:type" v="Polizeiinspektion"></tag>
</node>
<node lat="47.1991439882607" lon="15.337712028280361" id="-26">
  <tag k="addr:housenumber" v="56"></tag>
  <tag k="contact:tel" v="+43 59133 6131"></tag>
  <tag k="addr:city" v="Deutschfeistritz"></tag>
  <tag k="addr:postcode" v="8121"></tag>
  <tag k="addr:street" v="Bahnhofstraße"></tag>
  <tag k="amenity" v="police"></tag>
  <tag k="ref:ogdsteiermark" v="1002"></tag>
  <tag k="note:type" v="Polizeiinspektion"></tag>
</node>
<node lat="47.22315688400486" lon="15.23974897537859" id="-27">
  <tag k="addr:housenumber" v="14"></tag>
  <tag k="contact:tel" v="+43 59133 6153"></tag>
  <tag k="addr:city" v="Übelbach"></tag>
  <tag k="addr:postcode" v="8124"></tag>
  <tag k="addr:street" v="Kirchengasse"></tag>
  <tag k="amenity" v="police"></tag>
  <tag k="ref:ogdsteiermark" v="1003"></tag>
  <tag k="note:type" v="Polizeiinspektion"></tag>
</node>
<node lat="47.27200534065213" lon="15.322052410640897" id="-28">
  <tag k="addr:housenumber" v="2"></tag>
  <tag k="contact:tel" v="+43 59133 6135"></tag>
  <tag k="addr:city" v="Frohnleiten"></tag>
  <tag k="addr:postcode" v="8130"></tag>
  <tag k="addr:street" v="Dr.-Ammann-Straße"></tag>
  <tag k="amenity" v="police"></tag>
  <tag k="ref:ogdsteiermark" v="1004"></tag>
  <tag k="note:type" v="Polizeiinspektion"></tag>
</node>
<node lat="46.98375940832923" lon="15.41994467077893" id="-30">
  <tag k="addr:housenumber" v="35"></tag>
  <tag k="contact:tel" v="+43 59133 6138"></tag>
  <tag k="addr:city" v="Unterpremstätten"></tag>
  <tag k="addr:postcode" v="8141"></tag>
  <tag k="addr:street" v="Bäckweg"></tag>
  <tag k="amenity" v="police"></tag>
  <tag k="ref:ogdsteiermark" v="1006"></tag>
  <tag k="note:type" v="Autobahnpolizeiinspektion"></tag>
</node>
<node lat="46.972747115305694" lon="15.404956145357602" id="-31">
  <tag k="addr:housenumber" v="131a"></tag>
  <tag k="contact:tel" v="+43 59133 6154"></tag>
  <tag k="addr:city" v="Unterpremstätten"></tag>
  <tag k="addr:postcode" v="8141"></tag>
  <tag k="addr:street" v="Hauptstraße"></tag>
  <tag k="amenity" v="police"></tag>
  <tag k="ref:ogdsteiermark" v="1007"></tag>
  <tag k="note:type" v="Polizeiinspektion"></tag>
</node>
<node lat="47.0346847260871" lon="15.299661401125963" id="-32">
  <tag k="addr:housenumber" v="63"></tag>
  <tag k="contact:tel" v="+43 59133 6141"></tag>
  <tag k="addr:city" v="Hitzendorf"></tag>
  <tag k="addr:postcode" v="8151"></tag>
  <tag k="amenity" v="police"></tag>
  <tag k="ref:ogdsteiermark" v="1008"></tag>
  <tag k="note:type" v="Polizeiinspektion"></tag>
</node>
<node lat="47.07525402174431" lon="15.58715973625335" id="-50">
  <tag k="addr:housenumber" v="57"></tag>
  <tag k="contact:tel" v="+43 59133 6144"></tag>
  <tag k="addr:city" v="Laßnitzhöhe"></tag>
  <tag k="addr:postcode" v="8301"></tag>
  <tag k="addr:street" v="Hauptstraße"></tag>
  <tag k="amenity" v="police"></tag>
  <tag k="ref:ogdsteiermark" v="1026"></tag>
  <tag k="note:type" v="Polizeiinspektion"></tag>
</node>
<node lat="47.017626750106054" lon="15.688286078802639" id="-53">
  <tag k="addr:housenumber" v="25"></tag>
  <tag k="contact:tel" v="+43 59133 6147"></tag>
  <tag k="addr:city" v="St. Marein/Graz"></tag>
  <tag k="addr:postcode" v="8323"></tag>
  <tag k="addr:street" v="Markt"></tag>
  <tag k="amenity" v="police"></tag>
  <tag k="ref:ogdsteiermark" v="1029"></tag>
  <tag k="note:type" v="Polizeiinspektion"></tag>
</node>
<node lat="46.97210373223385" lon="15.338586428768515" id="-77">
  <tag k="addr:housenumber" v="1"></tag>
  <tag k="contact:tel" v="+43 59133 6145"></tag>
  <tag k="addr:city" v="Lieboch"></tag>
  <tag k="addr:postcode" v="8501"></tag>
  <tag k="addr:street" v="Rupert-Schmid-Platz"></tag>
  <tag k="amenity" v="police"></tag>
  <tag k="ref:ogdsteiermark" v="1053"></tag>
  <tag k="note:type" v="Polizeiinspektion"></tag>
</node>
</osm>