<?xml version="1.0" encoding="UTF-8"?>
<osm version="0.6">
<node lat="47.04079285763887" lon="15.413895314024016" id="-10">
  <tag k="addr:housenumber" v="207c"></tag>
  <tag k="contact:tel" v="+43 59133 651940"></tag>
  <tag k="addr:city" v="Graz"></tag>
  <tag k="addr:postcode" v="8053"></tag>
  <tag k="addr:street" v="Kärntner Straße"></tag>
  <tag k="amenity" v="police"></tag>
  <tag k="ref:ogdsteiermark" v="986"></tag>
  <tag k="note:type" v="Polizeiinspektion"></tag>
</node>
<node lat="47.07648295483292" lon="15.428646372177434" id="-11">
  <tag k="addr:housenumber" v="21"></tag>
  <tag k="contact:tel" v="+43 59133 651960"></tag>
  <tag k="addr:city" v="Graz"></tag>
  <tag k="addr:postcode" v="8020"></tag>
  <tag k="addr:street" v="Lendplatz"></tag>
  <tag k="amenity" v="police"></tag>
  <tag k="ref:ogdsteiermark" v="987"></tag>
  <tag k="note:type" v="Polizeiinspektion"></tag>
</node>
<node lat="47.040514734978764" lon="15.459324805612553" id="-12">
  <tag k="addr:housenumber" v="73"></tag>
  <tag k="contact:tel" v="+43 59133 651780"></tag>
  <tag k="addr:city" v="Graz"></tag>
  <tag k="addr:postcode" v="8041"></tag>
  <tag k="addr:street" v="Liebenauer Hauptstraße"></tag>
  <tag k="amenity" v="police"></tag>
  <tag k="ref:ogdsteiermark" v="988"></tag>
  <tag k="note:type" v="Polizeiinspektion"></tag>
</node>
<node lat="47.10333811167832" lon="15.42274753768978" id="-13">
  <tag k="addr:housenumber" v="38"></tag>
  <tag k="contact:tel" v="+43 59133 651720"></tag>
  <tag k="addr:city" v="Graz"></tag>
  <tag k="addr:postcode" v="8045"></tag>
  <tag k="addr:street" v="Andritzer Reichsstraße"></tag>
  <tag k="amenity" v="police"></tag>
  <tag k="ref:ogdsteiermark" v="989"></tag>
  <tag k="note:type" v="Polizeiinspektion"></tag>
</node>
<node lat="47.08973168646542" lon="15.409942410474457" id="-14">
  <tag k="addr:housenumber" v="202"></tag>
  <tag k="contact:tel" v="+43 59133 651860"></tag>
  <tag k="addr:city" v="Graz"></tag>
  <tag k="addr:postcode" v="8051"></tag>
  <tag k="addr:street" v="Wiener Straße"></tag>
  <tag k="amenity" v="police"></tag>
  <tag k="ref:ogdsteiermark" v="990"></tag>
  <tag k="note:type" v="Polizeiinspektion"></tag>
</node>
<node lat="47.04578032429157" lon="15.39466643728095" id="-15">
  <tag k="addr:housenumber" v="280"></tag>
  <tag k="contact:tel" v="+43 59133 60"></tag>
  <tag k="addr:city" v="Graz"></tag>
  <tag k="addr:postcode" v="8052"></tag>
  <tag k="addr:street" v="Straßganger Straße"></tag>
  <tag k="amenity" v="police"></tag>
  <tag k="ref:ogdsteiermark" v="991"></tag>
  <tag k="note:type" v="Landespolizeikommando"></tag>
</node>
<node lat="47.07565354353128" lon="15.44120024334165" id="-161">
  <tag k="addr:housenumber" v="10"></tag>
  <tag k="contact:tel" v="+43 316888 65"></tag>
  <tag k="addr:city" v="Graz"></tag>
  <tag k="addr:postcode" v="8010"></tag>
  <tag k="addr:street" v="Parkring"></tag>
  <tag k="amenity" v="police"></tag>
  <tag k="ref:ogdsteiermark" v="1137"></tag>
  <tag k="note:type" v="Sicherheitsdirektion"></tag>
</node>
<node lat="47.06316218518762" lon="15.442856145293419" id="-2">
  <tag k="addr:housenumber" v="1-3"></tag>
  <tag k="contact:tel" v="+43 59133 651740"></tag>
  <tag k="addr:city" v="Graz"></tag>
  <tag k="addr:postcode" v="8010"></tag>
  <tag k="addr:street" v="Adolf-Kolping-G."></tag>
  <tag k="amenity" v="police"></tag>
  <tag k="ref:ogdsteiermark" v="978"></tag>
  <tag k="note:type" v="Polizeiinspektion"></tag>
</node>
<node lat="47.06613016594661" lon="15.463905819399903" id="-3">
  <tag k="addr:housenumber" v="37-39"></tag>
  <tag k="contact:tel" v="+43 59133 651820"></tag>
  <tag k="addr:city" v="Graz"></tag>
  <tag k="addr:postcode" v="8010"></tag>
  <tag k="addr:street" v="Plüddemanngasse"></tag>
  <tag k="amenity" v="police"></tag>
  <tag k="ref:ogdsteiermark" v="979"></tag>
  <tag k="note:type" v="Polizeiinspektion"></tag>
</node>
<node lat="47.0683214547782" lon="15.439010426273963" id="-4">
  <tag k="addr:housenumber" v="26"></tag>
  <tag k="contact:tel" v="+43 59133 651840"></tag>
  <tag k="addr:city" v="Graz"></tag>
  <tag k="addr:postcode" v="8010"></tag>
  <tag k="addr:street" v="Schmiedgasse"></tag>
  <tag k="amenity" v="police"></tag>
  <tag k="ref:ogdsteiermark" v="980"></tag>
  <tag k="note:type" v="Polizeiinspektion"></tag>
</node>
<node lat="47.079807696959875" lon="15.467388903952958" id="-5">
  <tag k="addr:housenumber" v="3-7"></tag>
  <tag k="contact:tel" v="+43 59133 651800"></tag>
  <tag k="addr:city" v="Graz"></tag>
  <tag k="addr:postcode" v="8010"></tag>
  <tag k="addr:street" v="Stiftingtalstraße"></tag>
  <tag k="amenity" v="police"></tag>
  <tag k="ref:ogdsteiermark" v="981"></tag>
  <tag k="note:type" v="Polizeiinspektion"></tag>
</node>
<node lat="47.07553482782233" lon="15.44115695148936" id="-6">
  <tag k="addr:housenumber" v="8"></tag>
  <tag k="contact:tel" v="+43 59133 651700"></tag>
  <tag k="addr:city" v="Graz"></tag>
  <tag k="addr:postcode" v="8011"></tag>
  <tag k="addr:street" v="Paulustorgasse"></tag>
  <tag k="amenity" v="police"></tag>
  <tag k="ref:ogdsteiermark" v="982"></tag>
  <tag k="note:type" v="Polizeiinspektion"></tag>
</node>
<node lat="47.06868119570977" lon="15.4009950765244" id="-7">
  <tag k="addr:housenumber" v="66"></tag>
  <tag k="contact:tel" v="+43 59133 651900"></tag>
  <tag k="addr:city" v="Graz"></tag>
  <tag k="addr:postcode" v="8020"></tag>
  <tag k="addr:street" v="Eckertstraße"></tag>
  <tag k="amenity" v="police"></tag>
  <tag k="ref:ogdsteiermark" v="983"></tag>
  <tag k="note:type" v="Polizeiinspektion"></tag>
</node>
<node lat="47.0727933090895" lon="15.417087694973052" id="-8">
  <tag k="addr:housenumber" v="7"></tag>
  <tag k="contact:tel" v="+43 59133 651760"></tag>
  <tag k="addr:city" v="Graz"></tag>
  <tag k="addr:postcode" v="8020"></tag>
  <tag k="addr:street" v="Europaplatz"></tag>
  <tag k="amenity" v="police"></tag>
  <tag k="ref:ogdsteiermark" v="984"></tag>
  <tag k="note:type" v="Polizeiinspektion"></tag>
</node>
<node lat="47.06219129778949" lon="15.428355806546868" id="-9">
  <tag k="addr:housenumber" v="14"></tag>
  <tag k="contact:tel" v="+43 59133 651920"></tag>
  <tag k="addr:city" v="Graz"></tag>
  <tag k="addr:postcode" v="8020"></tag>
  <tag k="addr:street" v="Karlauerstraße"></tag>
  <tag k="amenity" v="police"></tag>
  <tag k="ref:ogdsteiermark" v="985"></tag>
  <tag k="note:type" v="Polizeiinspektion"></tag>
</node>
</osm>