<?xml version="1.0" encoding="UTF-8"?>
<osm version="0.6">
<node lat="47.21608968472737" lon="14.832901166066831" id="-157">
  <tag k="addr:housenumber" v="27"></tag>
  <tag k="contact:tel" v="+43 316 83 03 42"></tag>
  <tag k="name" v="Adler-Apotheke"></tag>
  <tag k="addr:postcode" v="8720"></tag>
  <tag k="amenity" v="pharmacy"></tag>
  <tag k="addr:city" v="Knittelfeld"></tag>
  <tag k="ref:ogdsteiermark" v="157"></tag>
  <tag k="addr:street" v="Bahnstraße"></tag>
</node>
<node lat="47.213499492082214" lon="14.828958887763152" id="-158">
  <tag k="addr:housenumber" v="10"></tag>
  <tag k="contact:tel" v="+43 3512 826 61"></tag>
  <tag k="name" v="Stadt-Apotheke `Zur hl. Dreifaltigkeit`"></tag>
  <tag k="addr:postcode" v="8720"></tag>
  <tag k="amenity" v="pharmacy"></tag>
  <tag k="addr:city" v="Knittelfeld"></tag>
  <tag k="ref:ogdsteiermark" v="158"></tag>
  <tag k="addr:street" v="Hauptplatz 9 -"></tag>
</node>
<node lat="47.20835400835658" lon="14.797026979209317" id="-159">
  <tag k="addr:housenumber" v="6"></tag>
  <tag k="contact:tel" v="+43 316 82 31 59"></tag>
  <tag k="name" v="Sonnen-Apotheke"></tag>
  <tag k="addr:postcode" v="8724"></tag>
  <tag k="amenity" v="pharmacy"></tag>
  <tag k="addr:city" v="Spielberg"></tag>
  <tag k="ref:ogdsteiermark" v="159"></tag>
  <tag k="addr:street" v="Marktpassage"></tag>
</node>
<node lat="47.1907221579683" lon="14.756445800287059" id="-160">
  <tag k="addr:housenumber" v="24"></tag>
  <tag k="contact:tel" v="+43 3577 221 45"></tag>
  <tag k="name" v="Aichfeld-Apotheke"></tag>
  <tag k="addr:postcode" v="8740"></tag>
  <tag k="amenity" v="pharmacy"></tag>
  <tag k="addr:city" v="Zeltweg"></tag>
  <tag k="ref:ogdsteiermark" v="160"></tag>
  <tag k="addr:street" v="Bahnhofstraße"></tag>
</node>
<node lat="47.19411645924069" lon="14.756775631659275" id="-161">
  <tag k="addr:housenumber" v="36"></tag>
  <tag k="contact:tel" v="+43 3577 242 55"></tag>
  <tag k="name" v="Assisi-Apotheke"></tag>
  <tag k="addr:postcode" v="8740"></tag>
  <tag k="amenity" v="pharmacy"></tag>
  <tag k="addr:city" v="Zeltweg"></tag>
  <tag k="ref:ogdsteiermark" v="161"></tag>
  <tag k="addr:street" v="Bessemerstraße"></tag>
</node>
<node lat="47.168463801040495" lon="14.656971216936556" id="-162">
  <tag k="addr:housenumber" v="32"></tag>
  <tag k="contact:tel" v="+43 3382 524 17"></tag>
  <tag k="name" v="Stadt-Apotheke"></tag>
  <tag k="addr:postcode" v="8750"></tag>
  <tag k="amenity" v="pharmacy"></tag>
  <tag k="addr:city" v="Judenburg"></tag>
  <tag k="ref:ogdsteiermark" v="162"></tag>
  <tag k="addr:street" v="Burggasse"></tag>
</node>
<node lat="47.169261606942065" lon="14.660994170394595" id="-163">
  <tag k="addr:housenumber" v="5"></tag>
  <tag k="contact:tel" v="+43 316 83 04 20"></tag>
  <tag k="name" v="Landschafts-Apotheke"></tag>
  <tag k="addr:postcode" v="8750"></tag>
  <tag k="amenity" v="pharmacy"></tag>
  <tag k="addr:city" v="Judenburg"></tag>
  <tag k="ref:ogdsteiermark" v="163"></tag>
  <tag k="addr:street" v="Hauptplatz"></tag>
</node>
<node lat="47.207699195086505" lon="14.680642446219148" id="-164">
  <tag k="addr:housenumber" v="22"></tag>
  <tag k="contact:tel" v="+43 316 58 12 65"></tag>
  <tag k="name" v="Schutzengel-Apotheke"></tag>
  <tag k="addr:postcode" v="8753"></tag>
  <tag k="amenity" v="pharmacy"></tag>
  <tag k="addr:city" v="Fohnsdorf"></tag>
  <tag k="ref:ogdsteiermark" v="164"></tag>
  <tag k="addr:street" v="Grazer Straße"></tag>
</node>
<node lat="47.2074964125524" lon="14.674708088125323" id="-165">
  <tag k="addr:housenumber" v="11"></tag>
  <tag k="contact:tel" v="+43 3573 21 24"></tag>
  <tag k="name" v="Apotheke `Zum Bergmann`"></tag>
  <tag k="addr:postcode" v="8753"></tag>
  <tag k="amenity" v="pharmacy"></tag>
  <tag k="addr:city" v="Fohnsdorf"></tag>
  <tag k="ref:ogdsteiermark" v="165"></tag>
  <tag k="addr:street" v="Hauptstraße"></tag>
</node>
<node lat="47.219569023057836" lon="14.581804632685172" id="-166">
  <tag k="addr:housenumber" v="18"></tag>
  <tag k="contact:tel" v="+43 3579 210 20"></tag>
  <tag k="name" v="Pölstal Apotheke"></tag>
  <tag k="addr:postcode" v="8761"></tag>
  <tag k="amenity" v="pharmacy"></tag>
  <tag k="addr:city" v="Pöls"></tag>
  <tag k="ref:ogdsteiermark" v="166"></tag>
  <tag k="addr:street" v="Marktplatz"></tag>
</node>
</osm>