<?xml version="1.0" encoding="UTF-8"?>
<osm version="0.6">
<node lat="46.73766471532281" lon="15.920370119991917" id="-1">
  <tag k="addr:housenumber" v="108"></tag>
  <tag k="contact:tel" v="+43 59133 6181"></tag>
  <tag k="addr:city" v="Oberpurkla"></tag>
  <tag k="addr:postcode" v="8484"></tag>
  <tag k="amenity" v="police"></tag>
  <tag k="ref:ogdsteiermark" v="977"></tag>
  <tag k="note:type" v="Polizeiinspektion"></tag>
</node>
<node lat="47.04079285763887" lon="15.413895314024016" id="-10">
  <tag k="addr:housenumber" v="207c"></tag>
  <tag k="contact:tel" v="+43 59133 651940"></tag>
  <tag k="addr:city" v="Graz"></tag>
  <tag k="addr:postcode" v="8053"></tag>
  <tag k="addr:street" v="Kärntner Straße"></tag>
  <tag k="amenity" v="police"></tag>
  <tag k="ref:ogdsteiermark" v="986"></tag>
  <tag k="note:type" v="Polizeiinspektion"></tag>
</node>
<node lat="47.50737156740232" lon="15.44965202702837" id="-100">
  <tag k="addr:housenumber" v="8"></tag>
  <tag k="contact:tel" v="+43 59133 6251"></tag>
  <tag k="addr:city" v="Kindberg"></tag>
  <tag k="addr:postcode" v="8650"></tag>
  <tag k="addr:street" v="Hauptstraße"></tag>
  <tag k="amenity" v="police"></tag>
  <tag k="ref:ogdsteiermark" v="1076"></tag>
  <tag k="note:type" v="Polizeiinspektion"></tag>
</node>
<node lat="47.580357648984375" lon="15.492266714802557" id="-101">
  <tag k="addr:housenumber" v="8"></tag>
  <tag k="contact:tel" v="+43 59133 6258"></tag>
  <tag k="addr:city" v="Veitsch"></tag>
  <tag k="addr:postcode" v="8663"></tag>
  <tag k="addr:street" v="Obere Hauptstraße"></tag>
  <tag k="amenity" v="police"></tag>
  <tag k="ref:ogdsteiermark" v="1077"></tag>
  <tag k="note:type" v="Polizeiinspektion"></tag>
</node>
<node lat="47.56831720432149" lon="15.619846972485705" id="-102">
  <tag k="addr:housenumber" v="16"></tag>
  <tag k="contact:tel" v="+43 59133 6253"></tag>
  <tag k="addr:city" v="Langenwang"></tag>
  <tag k="addr:postcode" v="8665"></tag>
  <tag k="addr:street" v="Grazer Straße"></tag>
  <tag k="amenity" v="police"></tag>
  <tag k="ref:ogdsteiermark" v="1078"></tag>
  <tag k="note:type" v="Polizeiinspektion"></tag>
</node>
<node lat="47.544677754744434" lon="15.560240865979175" id="-103">
  <tag k="addr:housenumber" v="9"></tag>
  <tag k="contact:tel" v="+43 59133 6252"></tag>
  <tag k="addr:city" v="Krieglach"></tag>
  <tag k="addr:postcode" v="8670"></tag>
  <tag k="addr:street" v="Hauptplatz"></tag>
  <tag k="amenity" v="police"></tag>
  <tag k="ref:ogdsteiermark" v="1079"></tag>
  <tag k="note:type" v="Polizeiinspektion"></tag>
</node>
<node lat="47.48450797256235" lon="15.7215664756118" id="-104">
  <tag k="addr:housenumber" v="145"></tag>
  <tag k="contact:tel" v="+43 59133 6269"></tag>
  <tag k="addr:city" v="Ratten"></tag>
  <tag k="addr:postcode" v="8673"></tag>
  <tag k="addr:street" v="Kirchenviertel"></tag>
  <tag k="amenity" v="police"></tag>
  <tag k="ref:ogdsteiermark" v="1080"></tag>
  <tag k="note:type" v="Polizeiinspektion"></tag>
</node>
<node lat="47.605500186178226" lon="15.670542094726795" id="-105">
  <tag k="addr:housenumber" v="3"></tag>
  <tag k="contact:tel" v="+43 59133 6250"></tag>
  <tag k="addr:city" v="Mürzzuschlag"></tag>
  <tag k="addr:postcode" v="8680"></tag>
  <tag k="addr:street" v="DDr.-Alfred-Schachner-Platz"></tag>
  <tag k="amenity" v="police"></tag>
  <tag k="ref:ogdsteiermark" v="1081"></tag>
  <tag k="note:type" v="Bezirkspolizeikommando/Alpine Einsatzgruppe Mürzz"></tag>
</node>
<node lat="47.615422148934115" lon="15.751764521714009" id="-106">
  <tag k="addr:housenumber" v="24a"></tag>
  <tag k="contact:tel" v="+43 59133 6256"></tag>
  <tag k="addr:city" v="Spital/Semmering"></tag>
  <tag k="addr:postcode" v="8684"></tag>
  <tag k="addr:street" v="Bundesstraße"></tag>
  <tag k="amenity" v="police"></tag>
  <tag k="ref:ogdsteiermark" v="1082"></tag>
  <tag k="note:type" v="Polizeiinspektion"></tag>
</node>
<node lat="47.665748109933496" lon="15.575614413956277" id="-107">
  <tag k="addr:housenumber" v="6"></tag>
  <tag k="contact:tel" v="+43 59133 6255"></tag>
  <tag k="addr:city" v="Neuberg/Mürz"></tag>
  <tag k="addr:postcode" v="8692"></tag>
  <tag k="addr:street" v="Hauptstraße"></tag>
  <tag k="amenity" v="police"></tag>
  <tag k="ref:ogdsteiermark" v="1083"></tag>
  <tag k="note:type" v="Polizeiinspektion"></tag>
</node>
<node lat="47.37214655908547" lon="15.091176442365398" id="-108">
  <tag k="addr:housenumber" v="14"></tag>
  <tag k="contact:tel" v="+43 59133 6390800"></tag>
  <tag k="addr:city" v="Leoben"></tag>
  <tag k="addr:postcode" v="8700"></tag>
  <tag k="addr:street" v="Josef Heißl-Str."></tag>
  <tag k="amenity" v="police"></tag>
  <tag k="ref:ogdsteiermark" v="1084"></tag>
  <tag k="note:type" v="Polizeiinspektion/ Stadtleitstelle"></tag>
</node>
<node lat="47.39460568928004" lon="15.163252283515899" id="-109">
  <tag k="addr:housenumber" v="6"></tag>
  <tag k="contact:tel" v="+43 59133 6325"></tag>
  <tag k="addr:city" v="Niklasdorf"></tag>
  <tag k="addr:postcode" v="8712"></tag>
  <tag k="addr:street" v="Bergstraße"></tag>
  <tag k="amenity" v="police"></tag>
  <tag k="ref:ogdsteiermark" v="1085"></tag>
  <tag k="note:type" v="Polizeiinspektion / Landeskriminalamt-Außenstelle"></tag>
</node>
<node lat="47.07648295483292" lon="15.428646372177434" id="-11">
  <tag k="addr:housenumber" v="21"></tag>
  <tag k="contact:tel" v="+43 59133 651960"></tag>
  <tag k="addr:city" v="Graz"></tag>
  <tag k="addr:postcode" v="8020"></tag>
  <tag k="addr:street" v="Lendplatz"></tag>
  <tag k="amenity" v="police"></tag>
  <tag k="ref:ogdsteiermark" v="987"></tag>
  <tag k="note:type" v="Polizeiinspektion"></tag>
</node>
<node lat="47.251188712520026" lon="14.896381550714619" id="-110">
  <tag k="addr:housenumber" v="110"></tag>
  <tag k="contact:tel" v="+43 59133 6312"></tag>
  <tag k="addr:city" v="St. Lorenzen/Knittelfeld"></tag>
  <tag k="addr:postcode" v="8715"></tag>
  <tag k="amenity" v="police"></tag>
  <tag k="ref:ogdsteiermark" v="1086"></tag>
  <tag k="note:type" v="Polizeiinspektion"></tag>
</node>
<node lat="47.21889963467514" lon="14.831074641023145" id="-111">
  <tag k="addr:housenumber" v="19"></tag>
  <tag k="contact:tel" v="+43 59133 6310"></tag>
  <tag k="addr:city" v="Knittelfeld"></tag>
  <tag k="addr:postcode" v="8720"></tag>
  <tag k="addr:street" v="Franz-Leitner-Straße"></tag>
  <tag k="amenity" v="police"></tag>
  <tag k="ref:ogdsteiermark" v="1087"></tag>
  <tag k="note:type" v="Bezirkspolizeikommando / Polizeiinspektion/ Bezirk"></tag>
</node>
<node lat="47.27445867111892" lon="14.785621586388418" id="-112">
  <tag k="addr:housenumber" v="81"></tag>
  <tag k="contact:tel" v="+43 59133 6311"></tag>
  <tag k="addr:city" v="Seckau"></tag>
  <tag k="addr:postcode" v="8732"></tag>
  <tag k="addr:street" v="Zellenplatz"></tag>
  <tag k="amenity" v="police"></tag>
  <tag k="ref:ogdsteiermark" v="1088"></tag>
  <tag k="note:type" v="Polizeiinspektion"></tag>
</node>
<node lat="47.189127005845265" lon="14.748391382488185" id="-113">
  <tag k="addr:housenumber" v="79"></tag>
  <tag k="contact:tel" v="+43 59133 6307"></tag>
  <tag k="addr:city" v="Zeltweg"></tag>
  <tag k="addr:postcode" v="8740"></tag>
  <tag k="addr:street" v="Bahnhofstraße"></tag>
  <tag k="amenity" v="police"></tag>
  <tag k="ref:ogdsteiermark" v="1089"></tag>
  <tag k="note:type" v="Polizeiinspektion"></tag>
</node>
<node lat="47.15221867114336" lon="14.739010949100095" id="-114">
  <tag k="addr:housenumber" v="1"></tag>
  <tag k="contact:tel" v="+43 59133 6306"></tag>
  <tag k="addr:city" v="Weißkirchen/Steiermark"></tag>
  <tag k="addr:postcode" v="8741"></tag>
  <tag k="addr:street" v="Gemeindeplatz"></tag>
  <tag k="amenity" v="police"></tag>
  <tag k="ref:ogdsteiermark" v="1090"></tag>
  <tag k="note:type" v="Polizeiinspektion"></tag>
</node>
<node lat="47.068418128808986" lon="14.69563275641029" id="-115">
  <tag k="addr:housenumber" v="33"></tag>
  <tag k="contact:tel" v="+43 59133 6302"></tag>
  <tag k="addr:city" v="Obdach"></tag>
  <tag k="addr:postcode" v="8742"></tag>
  <tag k="addr:street" v="Hauptstraße"></tag>
  <tag k="amenity" v="police"></tag>
  <tag k="ref:ogdsteiermark" v="1091"></tag>
  <tag k="note:type" v="Polizeiinspektion"></tag>
</node>
<node lat="47.16920872924724" lon="14.655108536366921" id="-116">
  <tag k="addr:housenumber" v="32"></tag>
  <tag k="contact:tel" v="+43 59133 6300"></tag>
  <tag k="addr:city" v="Judenburg"></tag>
  <tag k="addr:postcode" v="8750"></tag>
  <tag k="addr:street" v="Herrengasse"></tag>
  <tag k="amenity" v="police"></tag>
  <tag k="ref:ogdsteiermark" v="1092"></tag>
  <tag k="note:type" v="Bezirkspolizeikommando / Polizeiinspektion/ Bezirk"></tag>
</node>
<node lat="47.208633683587" lon="14.681537918109132" id="-117">
  <tag k="addr:housenumber" v="12"></tag>
  <tag k="contact:tel" v="+43 59133 6301"></tag>
  <tag k="addr:city" v="Fohnsdorf"></tag>
  <tag k="addr:postcode" v="8753"></tag>
  <tag k="addr:street" v="Landstraße"></tag>
  <tag k="amenity" v="police"></tag>
  <tag k="ref:ogdsteiermark" v="1093"></tag>
  <tag k="note:type" v="Polizeiinspektion"></tag>
</node>
<node lat="47.22014624905799" lon="14.58003911838266" id="-118">
  <tag k="addr:housenumber" v="6"></tag>
  <tag k="contact:tel" v="+43 59133 6304"></tag>
  <tag k="addr:city" v="Pöls"></tag>
  <tag k="addr:postcode" v="8761"></tag>
  <tag k="addr:street" v="Hauptplatz"></tag>
  <tag k="amenity" v="police"></tag>
  <tag k="ref:ogdsteiermark" v="1094"></tag>
  <tag k="note:type" v="Polizeiinspektion"></tag>
</node>
<node lat="47.251643732407764" lon="14.487352427415296" id="-119">
  <tag k="addr:housenumber" v="1"></tag>
  <tag k="contact:tel" v="+43 59133 6303"></tag>
  <tag k="addr:city" v="Oberzeiring"></tag>
  <tag k="addr:postcode" v="8762"></tag>
  <tag k="addr:street" v="Marktplatz"></tag>
  <tag k="amenity" v="police"></tag>
  <tag k="ref:ogdsteiermark" v="1095"></tag>
  <tag k="note:type" v="Polizeiinspektion"></tag>
</node>
<node lat="47.040514734978764" lon="15.459324805612553" id="-12">
  <tag k="addr:housenumber" v="73"></tag>
  <tag k="contact:tel" v="+43 59133 651780"></tag>
  <tag k="addr:city" v="Graz"></tag>
  <tag k="addr:postcode" v="8041"></tag>
  <tag k="addr:street" v="Liebenauer Hauptstraße"></tag>
  <tag k="amenity" v="police"></tag>
  <tag k="ref:ogdsteiermark" v="988"></tag>
  <tag k="note:type" v="Polizeiinspektion"></tag>
</node>
<node lat="47.29432608103438" lon="15.077494035229355" id="-120">
  <tag k="addr:housenumber" v="33"></tag>
  <tag k="contact:tel" v="+43 59133 6328"></tag>
  <tag k="addr:city" v="St. Michael/Obersteiermark"></tag>
  <tag k="addr:postcode" v="8770"></tag>
  <tag k="addr:street" v="Hinterlainsach"></tag>
  <tag k="amenity" v="police"></tag>
  <tag k="ref:ogdsteiermark" v="1096"></tag>
  <tag k="note:type" v="Autobahnpolizeiinspektion"></tag>
</node>
<node lat="47.33774645357594" lon="15.016356070476258" id="-121">
  <tag k="addr:housenumber" v="46"></tag>
  <tag k="contact:tel" v="+43 59133 6320"></tag>
  <tag k="addr:city" v="St. Michael/Obersteiermark"></tag>
  <tag k="addr:postcode" v="8770"></tag>
  <tag k="addr:street" v="Raiffeisenstraße"></tag>
  <tag k="amenity" v="police"></tag>
  <tag k="ref:ogdsteiermark" v="1097"></tag>
  <tag k="note:type" v="Bezirkspolizeikommando/Alpine Einsatzgruppe Leoben"></tag>
</node>
<node lat="47.398592179101556" lon="14.83132054527417" id="-122">
  <tag k="addr:housenumber" v="46"></tag>
  <tag k="contact:tel" v="+43 59133 6323"></tag>
  <tag k="addr:city" v="Mautern/Steiermark"></tag>
  <tag k="addr:postcode" v="8774"></tag>
  <tag k="addr:street" v="Hauptstraße"></tag>
  <tag k="amenity" v="police"></tag>
  <tag k="ref:ogdsteiermark" v="1098"></tag>
  <tag k="note:type" v="Polizeiinspektion"></tag>
</node>
<node lat="47.49220780627293" lon="14.482432439864409" id="-123">
  <tag k="addr:housenumber" v="8"></tag>
  <tag k="contact:tel" v="+43 59133 6346"></tag>
  <tag k="addr:city" v="Trieben"></tag>
  <tag k="addr:postcode" v="8784"></tag>
  <tag k="addr:street" v="Industriepark"></tag>
  <tag k="amenity" v="police"></tag>
  <tag k="ref:ogdsteiermark" v="1099"></tag>
  <tag k="note:type" v="Autobahnpolizeiinspektion"></tag>
</node>
<node lat="47.48683185617054" lon="14.48655949783674" id="-124">
  <tag k="addr:housenumber" v="4"></tag>
  <tag k="contact:tel" v="+43 59133 6345"></tag>
  <tag k="addr:city" v="Trieben"></tag>
  <tag k="addr:postcode" v="8784"></tag>
  <tag k="addr:street" v="Triebener Bundesstr."></tag>
  <tag k="amenity" v="police"></tag>
  <tag k="ref:ogdsteiermark" v="1100"></tag>
  <tag k="note:type" v="Polizeiinspektion"></tag>
</node>
<node lat="47.525677483984715" lon="14.359197089986896" id="-125">
  <tag k="addr:housenumber" v="51"></tag>
  <tag k="contact:tel" v="+43 59133 6343"></tag>
  <tag k="addr:city" v="Rottenmann"></tag>
  <tag k="addr:postcode" v="8786"></tag>
  <tag k="addr:street" v="Fürstgasse"></tag>
  <tag k="amenity" v="police"></tag>
  <tag k="ref:ogdsteiermark" v="1101"></tag>
  <tag k="note:type" v="Polizeiinspektion"></tag>
</node>
<node lat="47.542526023176855" lon="14.889944822885123" id="-126">
  <tag k="addr:housenumber" v="34"></tag>
  <tag k="contact:tel" v="+43 59133 6321"></tag>
  <tag k="addr:city" v="Eisenerz"></tag>
  <tag k="addr:postcode" v="8790"></tag>
  <tag k="addr:street" v="Hans-von-der-Sann-Straße"></tag>
  <tag k="amenity" v="police"></tag>
  <tag k="ref:ogdsteiermark" v="1102"></tag>
  <tag k="note:type" v="Polizeiinspektion"></tag>
</node>
<node lat="47.39579599449701" lon="15.037476899907462" id="-127">
  <tag k="addr:housenumber" v="5H"></tag>
  <tag k="contact:tel" v="+43 59133 6326"></tag>
  <tag k="addr:city" v="St. Peter-Freienstein"></tag>
  <tag k="addr:postcode" v="8792"></tag>
  <tag k="addr:street" v="Hauptstraße"></tag>
  <tag k="amenity" v="police"></tag>
  <tag k="ref:ogdsteiermark" v="1103"></tag>
  <tag k="note:type" v="Polizeiinspektion"></tag>
</node>
<node lat="47.431998401749595" lon="15.006185905514807" id="-128">
  <tag k="addr:housenumber" v="124a"></tag>
  <tag k="contact:tel" v="+43 59133 6327"></tag>
  <tag k="addr:city" v="Trofaiach"></tag>
  <tag k="addr:postcode" v="8793"></tag>
  <tag k="addr:street" v="Hauptstraße"></tag>
  <tag k="amenity" v="police"></tag>
  <tag k="ref:ogdsteiermark" v="1104"></tag>
  <tag k="note:type" v="Polizeiinspektion"></tag>
</node>
<node lat="47.48650749301806" lon="14.991991036912223" id="-129">
  <tag k="addr:housenumber" v="108a"></tag>
  <tag k="contact:tel" v="+43 59133 6329"></tag>
  <tag k="addr:city" v="Vordernberg"></tag>
  <tag k="addr:postcode" v="8794"></tag>
  <tag k="addr:street" v="Hauptstraße"></tag>
  <tag k="amenity" v="police"></tag>
  <tag k="ref:ogdsteiermark" v="1105"></tag>
  <tag k="note:type" v="Polizeiinspektion"></tag>
</node>
<node lat="47.10333811167832" lon="15.42274753768978" id="-13">
  <tag k="addr:housenumber" v="38"></tag>
  <tag k="contact:tel" v="+43 59133 651720"></tag>
  <tag k="addr:city" v="Graz"></tag>
  <tag k="addr:postcode" v="8045"></tag>
  <tag k="addr:street" v="Andritzer Reichsstraße"></tag>
  <tag k="amenity" v="police"></tag>
  <tag k="ref:ogdsteiermark" v="989"></tag>
  <tag k="note:type" v="Polizeiinspektion"></tag>
</node>
<node lat="47.19605854896815" lon="14.442983473925366" id="-130">
  <tag k="addr:housenumber" v="22"></tag>
  <tag k="contact:tel" v="+43 59133 6305"></tag>
  <tag k="addr:city" v="Unzmarkt"></tag>
  <tag k="addr:postcode" v="8800"></tag>
  <tag k="addr:street" v="Kärntner Straße"></tag>
  <tag k="amenity" v="police"></tag>
  <tag k="ref:ogdsteiermark" v="1106"></tag>
  <tag k="note:type" v="Polizeiinspektion"></tag>
</node>
<node lat="47.06984007471548" lon="14.2994766253116" id="-131">
  <tag k="addr:housenumber" v="11"></tag>
  <tag k="contact:tel" v="+43 59133 6365"></tag>
  <tag k="addr:city" v="St. Lambrecht"></tag>
  <tag k="addr:postcode" v="8813"></tag>
  <tag k="addr:street" v="Hauptstraße"></tag>
  <tag k="amenity" v="police"></tag>
  <tag k="ref:ogdsteiermark" v="1107"></tag>
  <tag k="note:type" v="Polizeiinspektion"></tag>
</node>
<node lat="47.07592468946446" lon="14.424671703205373" id="-132">
  <tag k="addr:housenumber" v="9"></tag>
  <tag k="contact:tel" v="+43 59133 6361"></tag>
  <tag k="addr:city" v="Neumarkt/Steiermark"></tag>
  <tag k="addr:postcode" v="8820"></tag>
  <tag k="addr:street" v="Wiener Straße"></tag>
  <tag k="amenity" v="police"></tag>
  <tag k="ref:ogdsteiermark" v="1108"></tag>
  <tag k="note:type" v="Polizeiinspektion"></tag>
</node>
<node lat="47.20276670871304" lon="14.28136083087898" id="-133">
  <tag k="addr:housenumber" v="99"></tag>
  <tag k="contact:tel" v="+43 59133 6362"></tag>
  <tag k="addr:city" v="Oberwölz"></tag>
  <tag k="addr:postcode" v="8832"></tag>
  <tag k="addr:street" v="Stadt"></tag>
  <tag k="amenity" v="police"></tag>
  <tag k="ref:ogdsteiermark" v="1109"></tag>
  <tag k="note:type" v="Polizeiinspektion"></tag>
</node>
<node lat="47.17988140034431" lon="14.111852469646864" id="-134">
  <tag k="addr:housenumber" v="155"></tag>
  <tag k="contact:tel" v="+43 59133 6364"></tag>
  <tag k="addr:city" v="Schöder"></tag>
  <tag k="addr:postcode" v="8844"></tag>
  <tag k="amenity" v="police"></tag>
  <tag k="ref:ogdsteiermark" v="1110"></tag>
  <tag k="note:type" v="Polizeiinspektion"></tag>
</node>
<node lat="47.10960073687619" lon="14.17269053190425" id="-135">
  <tag k="addr:housenumber" v="5"></tag>
  <tag k="contact:tel" v="+43 59133 6360"></tag>
  <tag k="addr:city" v="Murau"></tag>
  <tag k="addr:postcode" v="8850"></tag>
  <tag k="addr:street" v="Bahnhofstraße"></tag>
  <tag k="amenity" v="police"></tag>
  <tag k="ref:ogdsteiermark" v="1111"></tag>
  <tag k="note:type" v="Bezirkspolizeikommando/Alpine Einsatzgruppe Murau"></tag>
</node>
<node lat="47.08670068737627" lon="13.980439287243009" id="-136">
  <tag k="addr:housenumber" v="120"></tag>
  <tag k="contact:tel" v="+43 59133 6366"></tag>
  <tag k="addr:city" v="Stadl/Mur"></tag>
  <tag k="addr:postcode" v="8862"></tag>
  <tag k="amenity" v="police"></tag>
  <tag k="ref:ogdsteiermark" v="1112"></tag>
  <tag k="note:type" v="Polizeiinspektion"></tag>
</node>
<node lat="47.57411486813148" lon="14.459965157946971" id="-137">
  <tag k="addr:housenumber" v="64"></tag>
  <tag k="contact:tel" v="+43 59133 6341"></tag>
  <tag k="addr:city" v="Admont"></tag>
  <tag k="addr:postcode" v="8911"></tag>
  <tag k="addr:street" v="Maierhof"></tag>
  <tag k="amenity" v="police"></tag>
  <tag k="ref:ogdsteiermark" v="1113"></tag>
  <tag k="note:type" v="Polizeiinspektion"></tag>
</node>
<node lat="47.60603308911365" lon="14.744760455219144" id="-138">
  <tag k="addr:housenumber" v="15"></tag>
  <tag k="contact:tel" v="+43 59133 6322"></tag>
  <tag k="addr:city" v="Hieflau"></tag>
  <tag k="addr:postcode" v="8920"></tag>
  <tag k="addr:street" v="Hauptstraße"></tag>
  <tag k="amenity" v="police"></tag>
  <tag k="ref:ogdsteiermark" v="1114"></tag>
  <tag k="note:type" v="Polizeiinspektion"></tag>
</node>
<node lat="47.66324228462414" lon="14.987471308954749" id="-139">
  <tag k="addr:housenumber" v="92"></tag>
  <tag k="contact:tel" v="+43 59133 6347"></tag>
  <tag k="addr:city" v="Wildalpen"></tag>
  <tag k="addr:postcode" v="8924"></tag>
  <tag k="amenity" v="police"></tag>
  <tag k="ref:ogdsteiermark" v="1115"></tag>
  <tag k="note:type" v="Polizeiinspektion"></tag>
</node>
<node lat="47.08973168646542" lon="15.409942410474457" id="-14">
  <tag k="addr:housenumber" v="202"></tag>
  <tag k="contact:tel" v="+43 59133 651860"></tag>
  <tag k="addr:city" v="Graz"></tag>
  <tag k="addr:postcode" v="8051"></tag>
  <tag k="addr:street" v="Wiener Straße"></tag>
  <tag k="amenity" v="police"></tag>
  <tag k="ref:ogdsteiermark" v="990"></tag>
  <tag k="note:type" v="Polizeiinspektion"></tag>
</node>
<node lat="47.665022226221154" lon="14.712095753008828" id="-140">
  <tag k="addr:housenumber" v="100"></tag>
  <tag k="contact:tel" v="+43 59133 6342"></tag>
  <tag k="addr:city" v="Großreifling"></tag>
  <tag k="addr:postcode" v="8931"></tag>
  <tag k="amenity" v="police"></tag>
  <tag k="ref:ogdsteiermark" v="1116"></tag>
  <tag k="note:type" v="Polizeiinspektion"></tag>
</node>
<node lat="47.69082813379754" lon="14.616888386862835" id="-141">
  <tag k="addr:housenumber" v="208"></tag>
  <tag k="contact:tel" v="+43 59133 6344"></tag>
  <tag k="addr:city" v="St. Gallen"></tag>
  <tag k="addr:postcode" v="8933"></tag>
  <tag k="addr:street" v="Markt"></tag>
  <tag k="amenity" v="police"></tag>
  <tag k="ref:ogdsteiermark" v="1117"></tag>
  <tag k="note:type" v="Polizeiinspektion"></tag>
</node>
<node lat="47.56768971539368" lon="14.241106385699947" id="-142">
  <tag k="addr:housenumber" v="12a"></tag>
  <tag k="contact:tel" v="+43 59133 6340"></tag>
  <tag k="addr:city" v="Liezen"></tag>
  <tag k="addr:postcode" v="8940"></tag>
  <tag k="addr:street" v="Hauptplatz"></tag>
  <tag k="amenity" v="police"></tag>
  <tag k="ref:ogdsteiermark" v="1118"></tag>
  <tag k="note:type" v="Bezirkspolizeikommando/Alpine Einsatzgruppe Admond"></tag>
</node>
<node lat="47.53313680273386" lon="14.1102088377126" id="-143">
  <tag k="addr:housenumber" v="338"></tag>
  <tag k="contact:tel" v="+43 59133 6357"></tag>
  <tag k="addr:city" v="Stainach"></tag>
  <tag k="addr:postcode" v="8950"></tag>
  <tag k="addr:street" v="Grazer Straße"></tag>
  <tag k="amenity" v="police"></tag>
  <tag k="ref:ogdsteiermark" v="1119"></tag>
  <tag k="note:type" v="Polizeiinspektion/ Alpine Einsatzgruppe Bad Aussee"></tag>
</node>
<node lat="47.507511955374994" lon="14.107807691959469" id="-144">
  <tag k="addr:housenumber" v="23"></tag>
  <tag k="contact:tel" v="+43 59133 6354"></tag>
  <tag k="addr:city" v="Irdning"></tag>
  <tag k="addr:postcode" v="8952"></tag>
  <tag k="addr:street" v="Aignerstraße"></tag>
  <tag k="amenity" v="police"></tag>
  <tag k="ref:ogdsteiermark" v="1120"></tag>
  <tag k="note:type" v="Polizeiinspektion"></tag>
</node>
<node lat="47.448455581272505" lon="13.902846506672013" id="-145">
  <tag k="addr:housenumber" v="450"></tag>
  <tag k="contact:tel" v="+43 59133 6350"></tag>
  <tag k="addr:city" v="Gröbming"></tag>
  <tag k="addr:postcode" v="8962"></tag>
  <tag k="addr:street" v="Hauptstraße"></tag>
  <tag k="amenity" v="police"></tag>
  <tag k="ref:ogdsteiermark" v="1121"></tag>
  <tag k="note:type" v="Polizeiinspektion"></tag>
</node>
<node lat="47.41013590593288" lon="13.768734901503302" id="-146">
  <tag k="addr:housenumber" v="47"></tag>
  <tag k="contact:tel" v="+43 59133 6353"></tag>
  <tag k="addr:city" v="Haus"></tag>
  <tag k="addr:postcode" v="8967"></tag>
  <tag k="addr:street" v="Schloßplatz"></tag>
  <tag k="amenity" v="police"></tag>
  <tag k="ref:ogdsteiermark" v="1122"></tag>
  <tag k="note:type" v="Polizeiinspektion/ Alpine Einsatzgruppe Schladming"></tag>
</node>
<node lat="47.3929616902486" lon="13.691346640676622" id="-147">
  <tag k="addr:housenumber" v="46"></tag>
  <tag k="contact:tel" v="+43 59133 6356"></tag>
  <tag k="addr:city" v="Schladming"></tag>
  <tag k="addr:postcode" v="8970"></tag>
  <tag k="addr:street" v="Coburg Straße"></tag>
  <tag k="amenity" v="police"></tag>
  <tag k="ref:ogdsteiermark" v="1123"></tag>
  <tag k="note:type" v="Polizeiinspektion"></tag>
</node>
<node lat="47.42173159371423" lon="13.655939329985484" id="-148">
  <tag k="addr:housenumber" v="177"></tag>
  <tag k="contact:tel" v="+43 59133 6355"></tag>
  <tag k="addr:city" v="Ramsau/Dachstein"></tag>
  <tag k="addr:postcode" v="8972"></tag>
  <tag k="amenity" v="police"></tag>
  <tag k="ref:ogdsteiermark" v="1124"></tag>
  <tag k="note:type" v="Polizeiinspektion"></tag>
</node>
<node lat="47.55515809823767" lon="13.934969219517498" id="-149">
  <tag k="addr:housenumber" v="292"></tag>
  <tag k="contact:tel" v="+43 59133 6352"></tag>
  <tag k="addr:city" v="Bad Mitterndorf"></tag>
  <tag k="addr:postcode" v="8983"></tag>
  <tag k="amenity" v="police"></tag>
  <tag k="ref:ogdsteiermark" v="1125"></tag>
  <tag k="note:type" v="Polizeiinspektion"></tag>
</node>
<node lat="47.04578032429157" lon="15.39466643728095" id="-15">
  <tag k="addr:housenumber" v="280"></tag>
  <tag k="contact:tel" v="+43 59133 60"></tag>
  <tag k="addr:city" v="Graz"></tag>
  <tag k="addr:postcode" v="8052"></tag>
  <tag k="addr:street" v="Straßganger Straße"></tag>
  <tag k="amenity" v="police"></tag>
  <tag k="ref:ogdsteiermark" v="991"></tag>
  <tag k="note:type" v="Landespolizeikommando"></tag>
</node>
<node lat="47.61183501454417" lon="13.7795048005473" id="-150">
  <tag k="addr:housenumber" v="362"></tag>
  <tag k="contact:tel" v="+43 59133 6351"></tag>
  <tag k="addr:city" v="Bad Aussee"></tag>
  <tag k="addr:postcode" v="8990"></tag>
  <tag k="addr:street" v="Altausseer Straße"></tag>
  <tag k="amenity" v="police"></tag>
  <tag k="ref:ogdsteiermark" v="1126"></tag>
  <tag k="note:type" v="Polizeiinspektion"></tag>
</node>
<node lat="47.14833317286919" lon="14.412158596952962" id="-151">
  <tag k="addr:housenumber" v="1"></tag>
  <tag k="contact:tel" v="+43 59133 6363"></tag>
  <tag k="addr:city" v="Scheifling"></tag>
  <tag k="addr:postcode" v="8811"></tag>
  <tag k="addr:street" v="Amtsplatz"></tag>
  <tag k="amenity" v="police"></tag>
  <tag k="ref:ogdsteiermark" v="1127"></tag>
  <tag k="note:type" v="Polizeiinspektion"></tag>
</node>
<node lat="47.38121853198729" lon="15.09155387822853" id="-152">
  <tag k="addr:housenumber" v="8"></tag>
  <tag k="contact:tel" v="+43 59133 6392100"></tag>
  <tag k="addr:city" v="Leoben"></tag>
  <tag k="addr:postcode" v="8700"></tag>
  <tag k="addr:street" v="Erzherzog Johann Straße"></tag>
  <tag k="amenity" v="police"></tag>
  <tag k="ref:ogdsteiermark" v="1128"></tag>
  <tag k="note:type" v="Polizeiinspektion"></tag>
</node>
<node lat="47.448554472690894" lon="15.30600523890386" id="-153">
  <tag k="addr:housenumber" v="101"></tag>
  <tag k="contact:tel" v="+43 59133 6203"></tag>
  <tag k="addr:city" v="Kapfenberg"></tag>
  <tag k="addr:postcode" v="8605"></tag>
  <tag k="addr:street" v="Wiener Straße"></tag>
  <tag k="amenity" v="police"></tag>
  <tag k="ref:ogdsteiermark" v="1129"></tag>
  <tag k="note:type" v="Polizeiinspektion"></tag>
</node>
<node lat="47.522234506507154" lon="15.233491577898329" id="-154">
  <tag k="addr:housenumber" v="205"></tag>
  <tag k="contact:tel" v="+43 59133 6209"></tag>
  <tag k="addr:city" v="Thörl"></tag>
  <tag k="addr:postcode" v="8621"></tag>
  <tag k="addr:street" v="Palbersdorf Nr"></tag>
  <tag k="amenity" v="police"></tag>
  <tag k="ref:ogdsteiermark" v="1130"></tag>
  <tag k="note:type" v="Polizeiinspektion"></tag>
</node>
<node lat="47.124339249022015" lon="15.607830419273183" id="-155">
  <tag k="addr:housenumber" v="11"></tag>
  <tag k="contact:tel" v="+43 59133 6132"></tag>
  <tag k="addr:city" v="Eggersdorf/Graz"></tag>
  <tag k="addr:postcode" v="8063"></tag>
  <tag k="addr:street" v="Hauptstraße"></tag>
  <tag k="amenity" v="police"></tag>
  <tag k="ref:ogdsteiermark" v="1131"></tag>
  <tag k="note:type" v="Polizeiinspektion"></tag>
</node>
<node lat="47.01158272178528" lon="15.443025073056448" id="-156">
  <tag k="addr:housenumber" v="2"></tag>
  <tag k="contact:tel" v="+43 59133 6133"></tag>
  <tag k="addr:city" v="Feldkirchen/Graz"></tag>
  <tag k="addr:postcode" v="8073"></tag>
  <tag k="addr:street" v="Marktplatz"></tag>
  <tag k="amenity" v="police"></tag>
  <tag k="ref:ogdsteiermark" v="1132"></tag>
  <tag k="note:type" v="Polizeiinspektion"></tag>
</node>
<node lat="46.962199231295166" lon="15.479475036942" id="-157">
  <tag k="addr:housenumber" v="137"></tag>
  <tag k="contact:tel" v="+43 59133 6142"></tag>
  <tag k="addr:city" v="Kalsdorf/Graz"></tag>
  <tag k="addr:postcode" v="8401"></tag>
  <tag k="addr:street" v="Hauptstraße"></tag>
  <tag k="amenity" v="police"></tag>
  <tag k="ref:ogdsteiermark" v="1133"></tag>
  <tag k="note:type" v="Polizeiinspektion"></tag>
</node>
<node lat="47.21750952232637" lon="15.40526388456613" id="-158">
  <tag k="addr:housenumber" v="16"></tag>
  <tag k="contact:tel" v="+43 59133 6151"></tag>
  <tag k="addr:city" v="Semriach"></tag>
  <tag k="addr:postcode" v="8102"></tag>
  <tag k="addr:street" v="Markt"></tag>
  <tag k="amenity" v="police"></tag>
  <tag k="ref:ogdsteiermark" v="1134"></tag>
  <tag k="note:type" v="Polizeiinspektion"></tag>
</node>
<node lat="47.30218561987809" lon="15.83921106010876" id="-159">
  <tag k="addr:housenumber" v="619"></tag>
  <tag k="contact:tel" v="+43 59133 6235"></tag>
  <tag k="addr:city" v="Pöllau"></tag>
  <tag k="addr:postcode" v="8225"></tag>
  <tag k="addr:street" v="Schloffereckstraße"></tag>
  <tag k="amenity" v="police"></tag>
  <tag k="ref:ogdsteiermark" v="1135"></tag>
  <tag k="note:type" v="Polizeiinspektion"></tag>
</node>
<node lat="47.01053451215211" lon="15.403686731261587" id="-16">
  <tag k="addr:housenumber" v="21"></tag>
  <tag k="contact:tel" v="+43 59133 6130"></tag>
  <tag k="addr:city" v="Seiersberg"></tag>
  <tag k="addr:postcode" v="8054"></tag>
  <tag k="addr:street" v="Feldkirchner Straße"></tag>
  <tag k="amenity" v="police"></tag>
  <tag k="ref:ogdsteiermark" v="992"></tag>
  <tag k="note:type" v="Bezirkspolizeikommando / Polizeiinspektion/ Bezirk"></tag>
</node>
<node lat="47.27269639966873" lon="15.691249778047851" id="-160">
  <tag k="addr:housenumber" v="19"></tag>
  <tag k="contact:tel" v="+43 59133 6261"></tag>
  <tag k="addr:city" v="Anger"></tag>
  <tag k="addr:postcode" v="8184"></tag>
  <tag k="addr:street" v="Weizer Straße"></tag>
  <tag k="amenity" v="police"></tag>
  <tag k="ref:ogdsteiermark" v="1136"></tag>
  <tag k="note:type" v="Polizeiinspektion"></tag>
</node>
<node lat="47.07565354353128" lon="15.44120024334165" id="-161">
  <tag k="addr:housenumber" v="10"></tag>
  <tag k="contact:tel" v="+43 316888 65"></tag>
  <tag k="addr:city" v="Graz"></tag>
  <tag k="addr:postcode" v="8010"></tag>
  <tag k="addr:street" v="Parkring"></tag>
  <tag k="amenity" v="police"></tag>
  <tag k="ref:ogdsteiermark" v="1137"></tag>
  <tag k="note:type" v="Sicherheitsdirektion"></tag>
</node>
<node lat="47.1605201000626" lon="15.533392455023034" id="-17">
  <tag k="addr:housenumber" v="7"></tag>
  <tag k="contact:tel" v="+43 59133 6143"></tag>
  <tag k="addr:city" v="Kumberg"></tag>
  <tag k="addr:postcode" v="8062"></tag>
  <tag k="addr:street" v="Meierhöfenstraße"></tag>
  <tag k="amenity" v="police"></tag>
  <tag k="ref:ogdsteiermark" v="993"></tag>
  <tag k="note:type" v="Polizeiinspektion"></tag>
</node>
<node lat="46.99140417056782" lon="15.508012010723585" id="-18">
  <tag k="addr:housenumber" v="1"></tag>
  <tag k="contact:tel" v="+43 59133 6139"></tag>
  <tag k="addr:city" v="Hausmannstätten/Graz"></tag>
  <tag k="addr:postcode" v="8071"></tag>
  <tag k="addr:street" v="Marktplatz"></tag>
  <tag k="amenity" v="police"></tag>
  <tag k="ref:ogdsteiermark" v="994"></tag>
  <tag k="note:type" v="Polizeiinspektion"></tag>
</node>
<node lat="46.99547791730381" lon="15.444215993844864" id="-19">
  <tag k="addr:housenumber" v="51"></tag>
  <tag k="contact:tel" v="+43 59133 6134"></tag>
  <tag k="addr:city" v="Feldkirchen/Graz"></tag>
  <tag k="addr:postcode" v="8073"></tag>
  <tag k="addr:street" v="Flughafenstraße"></tag>
  <tag k="amenity" v="police"></tag>
  <tag k="ref:ogdsteiermark" v="995"></tag>
  <tag k="note:type" v="Grenzpolizeiinspektion (GREKO)"></tag>
</node>
<node lat="47.06316218518762" lon="15.442856145293419" id="-2">
  <tag k="addr:housenumber" v="1-3"></tag>
  <tag k="contact:tel" v="+43 59133 651740"></tag>
  <tag k="addr:city" v="Graz"></tag>
  <tag k="addr:postcode" v="8010"></tag>
  <tag k="addr:street" v="Adolf-Kolping-G."></tag>
  <tag k="amenity" v="police"></tag>
  <tag k="ref:ogdsteiermark" v="978"></tag>
  <tag k="note:type" v="Polizeiinspektion"></tag>
</node>
<node lat="47.02916267305171" lon="15.494772329966201" id="-20">
  <tag k="addr:housenumber" v="2"></tag>
  <tag k="contact:tel" v="+43 59133 6146"></tag>
  <tag k="addr:city" v="Raaba"></tag>
  <tag k="addr:postcode" v="8074"></tag>
  <tag k="addr:street" v="Dr.-Auner-Straße"></tag>
  <tag k="amenity" v="police"></tag>
  <tag k="ref:ogdsteiermark" v="996"></tag>
  <tag k="note:type" v="Polizeiinspektion"></tag>
</node>
<node lat="46.955222862483964" lon="15.587194527437475" id="-21">
  <tag k="addr:housenumber" v="6"></tag>
  <tag k="contact:tel" v="+43 59133 6167"></tag>
  <tag k="addr:city" v="Heiligenkreuz/Waasen"></tag>
  <tag k="addr:postcode" v="8081"></tag>
  <tag k="addr:street" v="Am Marktplatz"></tag>
  <tag k="amenity" v="police"></tag>
  <tag k="ref:ogdsteiermark" v="997"></tag>
  <tag k="note:type" v="Polizeiinspektion"></tag>
</node>
<node lat="46.93168263991465" lon="15.662283000871758" id="-22">
  <tag k="addr:housenumber" v="15"></tag>
  <tag k="contact:tel" v="+43 59133 6124"></tag>
  <tag k="addr:city" v="Kirchbach/Steiermark"></tag>
  <tag k="addr:postcode" v="8082"></tag>
  <tag k="amenity" v="police"></tag>
  <tag k="ref:ogdsteiermark" v="998"></tag>
  <tag k="note:type" v="Polizeiinspektion"></tag>
</node>
<node lat="46.902544735432514" lon="15.712306671116437" id="-23">
  <tag k="addr:housenumber" v="25"></tag>
  <tag k="contact:tel" v="+43 59133 6128"></tag>
  <tag k="addr:city" v="St. Stefan/Rosental"></tag>
  <tag k="addr:postcode" v="8083"></tag>
  <tag k="addr:street" v="Murecker Straße"></tag>
  <tag k="amenity" v="police"></tag>
  <tag k="ref:ogdsteiermark" v="999"></tag>
  <tag k="note:type" v="Polizeiinspektion"></tag>
</node>
<node lat="46.79936102482055" lon="15.75907936260551" id="-24">
  <tag k="addr:housenumber" v="2"></tag>
  <tag k="contact:tel" v="+43 59133 6184"></tag>
  <tag k="addr:city" v="St. Peter/Ottersbach"></tag>
  <tag k="addr:postcode" v="8093"></tag>
  <tag k="addr:street" v="Petersplatz"></tag>
  <tag k="amenity" v="police"></tag>
  <tag k="ref:ogdsteiermark" v="1000"></tag>
  <tag k="note:type" v="Polizeiinspektion"></tag>
</node>
<node lat="47.12726639894822" lon="15.317581377302332" id="-25">
  <tag k="addr:housenumber" v="3"></tag>
  <tag k="contact:tel" v="+43 59133 6137"></tag>
  <tag k="addr:city" v="Gratwein"></tag>
  <tag k="addr:postcode" v="8112"></tag>
  <tag k="addr:street" v="Bahnhofsplatz"></tag>
  <tag k="amenity" v="police"></tag>
  <tag k="ref:ogdsteiermark" v="1001"></tag>
  <tag k="note:type" v="Polizeiinspektion"></tag>
</node>
<node lat="47.1991439882607" lon="15.337712028280361" id="-26">
  <tag k="addr:housenumber" v="56"></tag>
  <tag k="contact:tel" v="+43 59133 6131"></tag>
  <tag k="addr:city" v="Deutschfeistritz"></tag>
  <tag k="addr:postcode" v="8121"></tag>
  <tag k="addr:street" v="Bahnhofstraße"></tag>
  <tag k="amenity" v="police"></tag>
  <tag k="ref:ogdsteiermark" v="1002"></tag>
  <tag k="note:type" v="Polizeiinspektion"></tag>
</node>
<node lat="47.22315688400486" lon="15.23974897537859" id="-27">
  <tag k="addr:housenumber" v="14"></tag>
  <tag k="contact:tel" v="+43 59133 6153"></tag>
  <tag k="addr:city" v="Übelbach"></tag>
  <tag k="addr:postcode" v="8124"></tag>
  <tag k="addr:street" v="Kirchengasse"></tag>
  <tag k="amenity" v="police"></tag>
  <tag k="ref:ogdsteiermark" v="1003"></tag>
  <tag k="note:type" v="Polizeiinspektion"></tag>
</node>
<node lat="47.27200534065213" lon="15.322052410640897" id="-28">
  <tag k="addr:housenumber" v="2"></tag>
  <tag k="contact:tel" v="+43 59133 6135"></tag>
  <tag k="addr:city" v="Frohnleiten"></tag>
  <tag k="addr:postcode" v="8130"></tag>
  <tag k="addr:street" v="Dr.-Ammann-Straße"></tag>
  <tag k="amenity" v="police"></tag>
  <tag k="ref:ogdsteiermark" v="1004"></tag>
  <tag k="note:type" v="Polizeiinspektion"></tag>
</node>
<node lat="47.36030507905879" lon="15.335106143595075" id="-29">
  <tag k="addr:housenumber" v="16"></tag>
  <tag k="contact:tel" v="+43 59133 6204"></tag>
  <tag k="addr:city" v="Kirchdorf/Pernegg"></tag>
  <tag k="addr:postcode" v="8132"></tag>
  <tag k="amenity" v="police"></tag>
  <tag k="ref:ogdsteiermark" v="1005"></tag>
  <tag k="note:type" v="Polizeiinspektion"></tag>
</node>
<node lat="47.06613016594661" lon="15.463905819399903" id="-3">
  <tag k="addr:housenumber" v="37-39"></tag>
  <tag k="contact:tel" v="+43 59133 651820"></tag>
  <tag k="addr:city" v="Graz"></tag>
  <tag k="addr:postcode" v="8010"></tag>
  <tag k="addr:street" v="Plüddemanngasse"></tag>
  <tag k="amenity" v="police"></tag>
  <tag k="ref:ogdsteiermark" v="979"></tag>
  <tag k="note:type" v="Polizeiinspektion"></tag>
</node>
<node lat="46.98375940832923" lon="15.41994467077893" id="-30">
  <tag k="addr:housenumber" v="35"></tag>
  <tag k="contact:tel" v="+43 59133 6138"></tag>
  <tag k="addr:city" v="Unterpremstätten"></tag>
  <tag k="addr:postcode" v="8141"></tag>
  <tag k="addr:street" v="Bäckweg"></tag>
  <tag k="amenity" v="police"></tag>
  <tag k="ref:ogdsteiermark" v="1006"></tag>
  <tag k="note:type" v="Autobahnpolizeiinspektion"></tag>
</node>
<node lat="46.972747115305694" lon="15.404956145357602" id="-31">
  <tag k="addr:housenumber" v="131a"></tag>
  <tag k="contact:tel" v="+43 59133 6154"></tag>
  <tag k="addr:city" v="Unterpremstätten"></tag>
  <tag k="addr:postcode" v="8141"></tag>
  <tag k="addr:street" v="Hauptstraße"></tag>
  <tag k="amenity" v="police"></tag>
  <tag k="ref:ogdsteiermark" v="1007"></tag>
  <tag k="note:type" v="Polizeiinspektion"></tag>
</node>
<node lat="47.0346847260871" lon="15.299661401125963" id="-32">
  <tag k="addr:housenumber" v="63"></tag>
  <tag k="contact:tel" v="+43 59133 6141"></tag>
  <tag k="addr:city" v="Hitzendorf"></tag>
  <tag k="addr:postcode" v="8151"></tag>
  <tag k="amenity" v="police"></tag>
  <tag k="ref:ogdsteiermark" v="1008"></tag>
  <tag k="note:type" v="Polizeiinspektion"></tag>
</node>
<node lat="47.04838571213445" lon="15.2210920098524" id="-33">
  <tag k="addr:housenumber" v="31"></tag>
  <tag k="contact:tel" v="+43 59133 6196"></tag>
  <tag k="addr:city" v="Stallhofen"></tag>
  <tag k="addr:postcode" v="8152"></tag>
  <tag k="amenity" v="police"></tag>
  <tag k="ref:ogdsteiermark" v="1009"></tag>
  <tag k="note:type" v="Polizeiinspektion"></tag>
</node>
<node lat="47.21588417422381" lon="15.632243626367341" id="-34">
  <tag k="addr:housenumber" v="5"></tag>
  <tag k="contact:tel" v="+43 59133 6260"></tag>
  <tag k="addr:city" v="Weiz"></tag>
  <tag k="addr:postcode" v="8160"></tag>
  <tag k="addr:street" v="Straußgasse"></tag>
  <tag k="amenity" v="police"></tag>
  <tag k="ref:ogdsteiermark" v="1010"></tag>
  <tag k="note:type" v="Bezirkspolizeikommando / Polizeiinspektion/ Bezirk"></tag>
</node>
<node lat="47.28173143608964" lon="15.515489172758674" id="-35">
  <tag k="addr:housenumber" v="43"></tag>
  <tag k="contact:tel" v="+43 59133 6266"></tag>
  <tag k="addr:city" v="Passail"></tag>
  <tag k="addr:postcode" v="8162"></tag>
  <tag k="addr:street" v="Hauptplatz"></tag>
  <tag k="amenity" v="police"></tag>
  <tag k="ref:ogdsteiermark" v="1011"></tag>
  <tag k="note:type" v="Polizeiinspektion"></tag>
</node>
<node lat="47.152171202430424" lon="15.663613608145045" id="-36">
  <tag k="addr:housenumber" v="20"></tag>
  <tag k="contact:tel" v="+43 59133 6273"></tag>
  <tag k="addr:city" v="St. Ruprecht/Raab"></tag>
  <tag k="addr:postcode" v="8181"></tag>
  <tag k="addr:street" v="Untere Hauptstraße"></tag>
  <tag k="amenity" v="police"></tag>
  <tag k="ref:ogdsteiermark" v="1012"></tag>
  <tag k="note:type" v="Polizeiinspektion"></tag>
</node>
<node lat="47.35467250648245" lon="15.694411168340322" id="-37">
  <tag k="addr:housenumber" v="6"></tag>
  <tag k="contact:tel" v="+43 59133 6262"></tag>
  <tag k="addr:city" v="Birkfeld"></tag>
  <tag k="addr:postcode" v="8190"></tag>
  <tag k="addr:street" v="Hauptplatz"></tag>
  <tag k="amenity" v="police"></tag>
  <tag k="ref:ogdsteiermark" v="1013"></tag>
  <tag k="note:type" v="Polizeiinspektion"></tag>
</node>
<node lat="47.10696402689522" lon="15.708244791752676" id="-38">
  <tag k="addr:housenumber" v="11"></tag>
  <tag k="contact:tel" v="+43 59133 6264"></tag>
  <tag k="addr:city" v="Gleisdorf"></tag>
  <tag k="addr:postcode" v="8200"></tag>
  <tag k="addr:street" v="Weizer Straße"></tag>
  <tag k="amenity" v="police"></tag>
  <tag k="ref:ogdsteiermark" v="1014"></tag>
  <tag k="note:type" v="Polizeiinspektion"></tag>
</node>
<node lat="47.17417923596143" lon="15.806343233154573" id="-39">
  <tag k="addr:housenumber" v="22"></tag>
  <tag k="contact:tel" v="+43 59133 6267"></tag>
  <tag k="addr:city" v="Pischelsdorf/Steiermark"></tag>
  <tag k="addr:postcode" v="8212"></tag>
  <tag k="amenity" v="police"></tag>
  <tag k="ref:ogdsteiermark" v="1015"></tag>
  <tag k="note:type" v="Polizeiinspektion"></tag>
</node>
<node lat="47.0683214547782" lon="15.439010426273963" id="-4">
  <tag k="addr:housenumber" v="26"></tag>
  <tag k="contact:tel" v="+43 59133 651840"></tag>
  <tag k="addr:city" v="Graz"></tag>
  <tag k="addr:postcode" v="8010"></tag>
  <tag k="addr:street" v="Schmiedgasse"></tag>
  <tag k="amenity" v="police"></tag>
  <tag k="ref:ogdsteiermark" v="980"></tag>
  <tag k="note:type" v="Polizeiinspektion"></tag>
</node>
<node lat="47.22410867408228" lon="15.907217994865643" id="-40">
  <tag k="addr:housenumber" v="86"></tag>
  <tag k="contact:tel" v="+43 59133 6234"></tag>
  <tag k="addr:city" v="Kaindorf"></tag>
  <tag k="addr:postcode" v="8224"></tag>
  <tag k="amenity" v="police"></tag>
  <tag k="ref:ogdsteiermark" v="1016"></tag>
  <tag k="note:type" v="Polizeiinspektion"></tag>
</node>
<node lat="47.28220130699756" lon="15.973963953454712" id="-41">
  <tag k="addr:housenumber" v="29"></tag>
  <tag k="contact:tel" v="+43 59133 6230"></tag>
  <tag k="addr:city" v="Hartberg"></tag>
  <tag k="addr:postcode" v="8230"></tag>
  <tag k="addr:street" v="Ressavarstraße"></tag>
  <tag k="amenity" v="police"></tag>
  <tag k="ref:ogdsteiermark" v="1017"></tag>
  <tag k="note:type" v="Bezirkspolizeikommando / Polizeiinspektion/ Bezirk"></tag>
</node>
<node lat="47.39045559991731" lon="15.99554537224484" id="-42">
  <tag k="addr:housenumber" v="165"></tag>
  <tag k="contact:tel" v="+43 59133 6236"></tag>
  <tag k="addr:city" v="Rohrbach/Lafnitz"></tag>
  <tag k="addr:postcode" v="8234"></tag>
  <tag k="amenity" v="police"></tag>
  <tag k="ref:ogdsteiermark" v="1018"></tag>
  <tag k="note:type" v="Polizeiinspektion"></tag>
</node>
<node lat="47.44130260893423" lon="16.05862610258419" id="-43">
  <tag k="addr:housenumber" v="4"></tag>
  <tag k="contact:tel" v="+43 59133 6232"></tag>
  <tag k="addr:city" v="Friedberg"></tag>
  <tag k="addr:postcode" v="8240"></tag>
  <tag k="addr:street" v="Wiener Straße"></tag>
  <tag k="amenity" v="police"></tag>
  <tag k="ref:ogdsteiermark" v="1019"></tag>
  <tag k="note:type" v="Polizeiinspektion"></tag>
</node>
<node lat="47.40590434256176" lon="15.888712956405346" id="-44">
  <tag k="addr:housenumber" v="78"></tag>
  <tag k="contact:tel" v="+43 59133 6239"></tag>
  <tag k="addr:city" v="Vorau"></tag>
  <tag k="addr:postcode" v="8250"></tag>
  <tag k="addr:street" v="Berggasse"></tag>
  <tag k="amenity" v="police"></tag>
  <tag k="ref:ogdsteiermark" v="1020"></tag>
  <tag k="note:type" v="Polizeiinspektion"></tag>
</node>
<node lat="47.086475619435404" lon="15.923526937216812" id="-45">
  <tag k="addr:housenumber" v="38"></tag>
  <tag k="contact:tel" v="+43 59133 6222"></tag>
  <tag k="addr:city" v="Ilz"></tag>
  <tag k="addr:postcode" v="8262"></tag>
  <tag k="amenity" v="police"></tag>
  <tag k="ref:ogdsteiermark" v="1021"></tag>
  <tag k="note:type" v="Polizeiinspektion"></tag>
</node>
<node lat="47.16987912144171" lon="16.00736129096626" id="-46">
  <tag k="addr:housenumber" v="4"></tag>
  <tag k="contact:tel" v="+43 59133 6231"></tag>
  <tag k="addr:city" v="Bad Waltersdorf"></tag>
  <tag k="addr:postcode" v="8271"></tag>
  <tag k="amenity" v="police"></tag>
  <tag k="ref:ogdsteiermark" v="1022"></tag>
  <tag k="note:type" v="Polizeiinspektion"></tag>
</node>
<node lat="47.04604451863153" lon="16.081939350615897" id="-47">
  <tag k="addr:housenumber" v="9"></tag>
  <tag k="contact:tel" v="+43 59133 6220"></tag>
  <tag k="addr:city" v="Fürstenfeld"></tag>
  <tag k="addr:postcode" v="8280"></tag>
  <tag k="addr:street" v="Schillerstraße"></tag>
  <tag k="amenity" v="police"></tag>
  <tag k="ref:ogdsteiermark" v="1023"></tag>
  <tag k="note:type" v="Bezirkspolizeikommando / Polizeiinspektion/ Bezirk"></tag>
</node>
<node lat="47.14299668139142" lon="16.099207488734685" id="-48">
  <tag k="addr:housenumber" v="7"></tag>
  <tag k="contact:tel" v="+43 59133 6221"></tag>
  <tag k="addr:city" v="Burgau"></tag>
  <tag k="addr:postcode" v="8291"></tag>
  <tag k="addr:street" v="Hauptplatz"></tag>
  <tag k="amenity" v="police"></tag>
  <tag k="ref:ogdsteiermark" v="1024"></tag>
  <tag k="note:type" v="Polizeiinspektion"></tag>
</node>
<node lat="47.280171828021295" lon="16.00750679459977" id="-49">
  <tag k="addr:housenumber" v="163"></tag>
  <tag k="contact:tel" v="+43 59133 6238"></tag>
  <tag k="addr:city" v="St. Johann/Haide"></tag>
  <tag k="addr:postcode" v="8295"></tag>
  <tag k="amenity" v="police"></tag>
  <tag k="ref:ogdsteiermark" v="1025"></tag>
  <tag k="note:type" v="Autobahnpolizeiinspektion"></tag>
</node>
<node lat="47.079807696959875" lon="15.467388903952958" id="-5">
  <tag k="addr:housenumber" v="3-7"></tag>
  <tag k="contact:tel" v="+43 59133 651800"></tag>
  <tag k="addr:city" v="Graz"></tag>
  <tag k="addr:postcode" v="8010"></tag>
  <tag k="addr:street" v="Stiftingtalstraße"></tag>
  <tag k="amenity" v="police"></tag>
  <tag k="ref:ogdsteiermark" v="981"></tag>
  <tag k="note:type" v="Polizeiinspektion"></tag>
</node>
<node lat="47.07525402174431" lon="15.58715973625335" id="-50">
  <tag k="addr:housenumber" v="57"></tag>
  <tag k="contact:tel" v="+43 59133 6144"></tag>
  <tag k="addr:city" v="Laßnitzhöhe"></tag>
  <tag k="addr:postcode" v="8301"></tag>
  <tag k="addr:street" v="Hauptstraße"></tag>
  <tag k="amenity" v="police"></tag>
  <tag k="ref:ogdsteiermark" v="1026"></tag>
  <tag k="note:type" v="Polizeiinspektion"></tag>
</node>
<node lat="47.05407075287651" lon="15.842061623566426" id="-51">
  <tag k="addr:housenumber" v="33"></tag>
  <tag k="contact:tel" v="+43 59133 6265"></tag>
  <tag k="addr:city" v="Markt Hartmannsdorf"></tag>
  <tag k="addr:postcode" v="8311"></tag>
  <tag k="addr:street" v="Hauptstraße"></tag>
  <tag k="amenity" v="police"></tag>
  <tag k="ref:ogdsteiermark" v="1027"></tag>
  <tag k="note:type" v="Polizeiinspektion"></tag>
</node>
<node lat="47.0445779105692" lon="15.744667241170792" id="-52">
  <tag k="addr:housenumber" v="39"></tag>
  <tag k="contact:tel" v="+43 59133 6272"></tag>
  <tag k="addr:city" v="St. Margarethen/Raab"></tag>
  <tag k="addr:postcode" v="8321"></tag>
  <tag k="amenity" v="police"></tag>
  <tag k="ref:ogdsteiermark" v="1028"></tag>
  <tag k="note:type" v="Polizeiinspektion"></tag>
</node>
<node lat="47.017626750106054" lon="15.688286078802639" id="-53">
  <tag k="addr:housenumber" v="25"></tag>
  <tag k="contact:tel" v="+43 59133 6147"></tag>
  <tag k="addr:city" v="St. Marein/Graz"></tag>
  <tag k="addr:postcode" v="8323"></tag>
  <tag k="addr:street" v="Markt"></tag>
  <tag k="amenity" v="police"></tag>
  <tag k="ref:ogdsteiermark" v="1029"></tag>
  <tag k="note:type" v="Polizeiinspektion"></tag>
</node>
<node lat="46.98589702539279" lon="15.767581886231884" id="-54">
  <tag k="addr:housenumber" v="212"></tag>
  <tag k="contact:tel" v="+43 59133 6125"></tag>
  <tag k="addr:city" v="Kirchberg/Raab"></tag>
  <tag k="addr:postcode" v="8324"></tag>
  <tag k="amenity" v="police"></tag>
  <tag k="ref:ogdsteiermark" v="1030"></tag>
  <tag k="note:type" v="Polizeiinspektion"></tag>
</node>
<node lat="46.95306928104646" lon="15.882645968037737" id="-55">
  <tag k="addr:housenumber" v="3"></tag>
  <tag k="contact:tel" v="+43 59133 6120"></tag>
  <tag k="addr:city" v="Feldbach"></tag>
  <tag k="addr:postcode" v="8330"></tag>
  <tag k="addr:street" v="Grillparzerstraße"></tag>
  <tag k="amenity" v="police"></tag>
  <tag k="ref:ogdsteiermark" v="1031"></tag>
  <tag k="note:type" v="Bezirkspolizeikommando / Polizeiinspektion/ Bezirk"></tag>
</node>
<node lat="47.00093588055076" lon="15.935793655174088" id="-56">
  <tag k="addr:housenumber" v="26"></tag>
  <tag k="contact:tel" v="+43 59133 6126"></tag>
  <tag k="addr:city" v="Riegersburg"></tag>
  <tag k="addr:postcode" v="8333"></tag>
  <tag k="amenity" v="police"></tag>
  <tag k="ref:ogdsteiermark" v="1032"></tag>
  <tag k="note:type" v="Polizeiinspektion"></tag>
</node>
<node lat="46.874363819730476" lon="15.826786515644486" id="-57">
  <tag k="contact:tel" v="+43 59133 6123"></tag>
  <tag k="addr:city" v="Gnas"></tag>
  <tag k="addr:postcode" v="8342"></tag>
  <tag k="amenity" v="police"></tag>
  <tag k="ref:ogdsteiermark" v="1033"></tag>
  <tag k="note:type" v="Polizeiinspektion"></tag>
</node>
<node lat="46.87912911418134" lon="15.906886635839808" id="-58">
  <tag k="addr:housenumber" v="139"></tag>
  <tag k="contact:tel" v="+43 59133 6121"></tag>
  <tag k="addr:city" v="Bad Gleichenberg"></tag>
  <tag k="addr:postcode" v="8344"></tag>
  <tag k="amenity" v="police"></tag>
  <tag k="ref:ogdsteiermark" v="1034"></tag>
  <tag k="note:type" v="Polizeiinspektion"></tag>
</node>
<node lat="46.936317088408934" lon="16.010120480841234" id="-59">
  <tag k="addr:housenumber" v="2"></tag>
  <tag k="contact:tel" v="+43 59133 6122"></tag>
  <tag k="addr:city" v="Fehring"></tag>
  <tag k="addr:postcode" v="8350"></tag>
  <tag k="addr:street" v="Grazer Straße"></tag>
  <tag k="amenity" v="police"></tag>
  <tag k="ref:ogdsteiermark" v="1035"></tag>
  <tag k="note:type" v="Polizeiinspektion"></tag>
</node>
<node lat="47.07553482782233" lon="15.44115695148936" id="-6">
  <tag k="addr:housenumber" v="8"></tag>
  <tag k="contact:tel" v="+43 59133 651700"></tag>
  <tag k="addr:city" v="Graz"></tag>
  <tag k="addr:postcode" v="8011"></tag>
  <tag k="addr:street" v="Paulustorgasse"></tag>
  <tag k="amenity" v="police"></tag>
  <tag k="ref:ogdsteiermark" v="982"></tag>
  <tag k="note:type" v="Polizeiinspektion"></tag>
</node>
<node lat="46.83254824174086" lon="15.974361569187261" id="-60">
  <tag k="addr:housenumber" v="14"></tag>
  <tag k="contact:tel" v="+43 59133 6127"></tag>
  <tag k="addr:city" v="St. Anna/Aigen"></tag>
  <tag k="addr:postcode" v="8354"></tag>
  <tag k="addr:street" v="Marktstraße"></tag>
  <tag k="amenity" v="police"></tag>
  <tag k="ref:ogdsteiermark" v="1036"></tag>
  <tag k="note:type" v="Polizeiinspektion"></tag>
</node>
<node lat="47.03088702402703" lon="16.01710158666889" id="-61">
  <tag k="addr:housenumber" v="104"></tag>
  <tag k="contact:tel" v="+43 59133 6223"></tag>
  <tag k="addr:city" v="Söchau"></tag>
  <tag k="addr:postcode" v="8362"></tag>
  <tag k="amenity" v="police"></tag>
  <tag k="ref:ogdsteiermark" v="1037"></tag>
  <tag k="note:type" v="Polizeiinspektion"></tag>
</node>
<node lat="46.85344388240264" lon="15.537936029693414" id="-62">
  <tag k="addr:housenumber" v="13"></tag>
  <tag k="contact:tel" v="+43 59133 6171"></tag>
  <tag k="addr:city" v="Lebring"></tag>
  <tag k="addr:postcode" v="8403"></tag>
  <tag k="addr:street" v="Leibnitzer Straße"></tag>
  <tag k="amenity" v="police"></tag>
  <tag k="ref:ogdsteiermark" v="1038"></tag>
  <tag k="note:type" v="Polizeiinspektion"></tag>
</node>
<node lat="46.88509605590331" lon="15.519139612941926" id="-63">
  <tag k="addr:housenumber" v="4"></tag>
  <tag k="contact:tel" v="+43 59133 6176"></tag>
  <tag k="addr:city" v="Wildon"></tag>
  <tag k="addr:postcode" v="8410"></tag>
  <tag k="addr:street" v="Unterer Markt Nr"></tag>
  <tag k="amenity" v="police"></tag>
  <tag k="ref:ogdsteiermark" v="1039"></tag>
  <tag k="note:type" v="Polizeiinspektion"></tag>
</node>
<node lat="46.84419238330333" lon="15.656880921948416" id="-64">
  <tag k="addr:housenumber" v="99"></tag>
  <tag k="contact:tel" v="+43 59133 6177"></tag>
  <tag k="addr:city" v="Wolfsberg/Schwarzautal"></tag>
  <tag k="addr:postcode" v="8421"></tag>
  <tag k="amenity" v="police"></tag>
  <tag k="ref:ogdsteiermark" v="1040"></tag>
  <tag k="note:type" v="Polizeiinspektion"></tag>
</node>
<node lat="46.77648455683905" lon="15.54633429150625" id="-65">
  <tag k="addr:housenumber" v="2"></tag>
  <tag k="contact:tel" v="+43 59133 6160"></tag>
  <tag k="addr:city" v="Leibnitz"></tag>
  <tag k="addr:postcode" v="8430"></tag>
  <tag k="addr:street" v="Mariengasse"></tag>
  <tag k="amenity" v="police"></tag>
  <tag k="ref:ogdsteiermark" v="1041"></tag>
  <tag k="note:type" v="Bezirkspolizeikommando / Polizeiinspektion/ Bezirk"></tag>
</node>
<node lat="46.75502483569242" lon="15.366910112890709" id="-66">
  <tag k="addr:housenumber" v="14a"></tag>
  <tag k="contact:tel" v="+43 59133 6166"></tag>
  <tag k="addr:city" v="Gleinstätten"></tag>
  <tag k="addr:postcode" v="8443"></tag>
  <tag k="amenity" v="police"></tag>
  <tag k="ref:ogdsteiermark" v="1042"></tag>
  <tag k="note:type" v="Polizeiinspektion"></tag>
</node>
<node lat="46.758837674256135" lon="15.488305408713032" id="-67">
  <tag k="addr:housenumber" v="251"></tag>
  <tag k="contact:tel" v="+43 59133 6168"></tag>
  <tag k="addr:city" v="Heimschuh"></tag>
  <tag k="addr:postcode" v="8451"></tag>
  <tag k="amenity" v="police"></tag>
  <tag k="ref:ogdsteiermark" v="1043"></tag>
  <tag k="note:type" v="Polizeiinspektion"></tag>
</node>
<node lat="46.67798007971723" lon="15.401551662012903" id="-68">
  <tag k="addr:housenumber" v="27"></tag>
  <tag k="contact:tel" v="+43 59133 6161"></tag>
  <tag k="addr:city" v="Arnfels"></tag>
  <tag k="addr:postcode" v="8454"></tag>
  <tag k="addr:street" v="Hauptplatz"></tag>
  <tag k="amenity" v="police"></tag>
  <tag k="ref:ogdsteiermark" v="1044"></tag>
  <tag k="note:type" v="Polizeiinspektion"></tag>
</node>
<node lat="46.677759526661745" lon="15.542084178824558" id="-69">
  <tag k="addr:housenumber" v="69"></tag>
  <tag k="contact:tel" v="+43 59133 6165"></tag>
  <tag k="addr:city" v="Gamlitz"></tag>
  <tag k="addr:postcode" v="8462"></tag>
  <tag k="addr:street" v="Eckberg "></tag>
  <tag k="amenity" v="police"></tag>
  <tag k="ref:ogdsteiermark" v="1045"></tag>
  <tag k="note:type" v="Grenzpolizeiinspektion (GÜ)"></tag>
</node>
<node lat="47.06868119570977" lon="15.4009950765244" id="-7">
  <tag k="addr:housenumber" v="66"></tag>
  <tag k="contact:tel" v="+43 59133 651900"></tag>
  <tag k="addr:city" v="Graz"></tag>
  <tag k="addr:postcode" v="8020"></tag>
  <tag k="addr:street" v="Eckertstraße"></tag>
  <tag k="amenity" v="police"></tag>
  <tag k="ref:ogdsteiermark" v="983"></tag>
  <tag k="note:type" v="Polizeiinspektion"></tag>
</node>
<node lat="46.720450919177964" lon="15.552676462070652" id="-70">
  <tag k="addr:housenumber" v="43"></tag>
  <tag k="contact:tel" v="+43 59133 6164"></tag>
  <tag k="addr:city" v="Gamlitz"></tag>
  <tag k="addr:postcode" v="8462"></tag>
  <tag k="addr:street" v="Obere Hauptstraße"></tag>
  <tag k="amenity" v="police"></tag>
  <tag k="ref:ogdsteiermark" v="1046"></tag>
  <tag k="note:type" v="Polizeiinspektion"></tag>
</node>
<node lat="46.66769738015629" lon="15.466949797371177" id="-71">
  <tag k="addr:housenumber" v="8"></tag>
  <tag k="contact:tel" v="+43 59133 6172"></tag>
  <tag k="addr:city" v="Leutschach"></tag>
  <tag k="addr:postcode" v="8463"></tag>
  <tag k="addr:street" v="Arnfelser Straße"></tag>
  <tag k="amenity" v="police"></tag>
  <tag k="ref:ogdsteiermark" v="1047"></tag>
  <tag k="note:type" v="Polizeiinspektion"></tag>
</node>
<node lat="46.69368039764599" lon="15.641299911361603" id="-72">
  <tag k="addr:housenumber" v="48a"></tag>
  <tag k="contact:tel" v="+43 59133 6173"></tag>
  <tag k="addr:city" v="Spielfeld"></tag>
  <tag k="addr:postcode" v="8471"></tag>
  <tag k="addr:street" v="Spielfeld"></tag>
  <tag k="amenity" v="police"></tag>
  <tag k="ref:ogdsteiermark" v="1048"></tag>
  <tag k="note:type" v="Grenzpolizeiinspektion (GREKO)"></tag>
</node>
<node lat="46.72626616009589" lon="15.627439593708642" id="-73">
  <tag k="addr:housenumber" v="58"></tag>
  <tag k="contact:tel" v="+43 59133 6175"></tag>
  <tag k="addr:city" v="Straß/Steiermark"></tag>
  <tag k="addr:postcode" v="8472"></tag>
  <tag k="addr:street" v="Hauptstraße"></tag>
  <tag k="amenity" v="police"></tag>
  <tag k="ref:ogdsteiermark" v="1049"></tag>
  <tag k="note:type" v="Polizeiinspektion"></tag>
</node>
<node lat="46.70791253507257" lon="15.770810386146458" id="-74">
  <tag k="addr:housenumber" v="2"></tag>
  <tag k="contact:tel" v="+43 59133 6183"></tag>
  <tag k="addr:city" v="Mureck"></tag>
  <tag k="addr:postcode" v="8480"></tag>
  <tag k="addr:street" v="Hauptplatz"></tag>
  <tag k="amenity" v="police"></tag>
  <tag k="ref:ogdsteiermark" v="1050"></tag>
  <tag k="note:type" v="Polizeiinspektion"></tag>
</node>
<node lat="46.69048548623905" lon="15.99436692805414" id="-75">
  <tag k="addr:housenumber" v="17"></tag>
  <tag k="contact:tel" v="+43 59133 6180"></tag>
  <tag k="addr:city" v="Bad Radkersburg"></tag>
  <tag k="addr:postcode" v="8490"></tag>
  <tag k="addr:street" v="Dr. Schwaiger Straße"></tag>
  <tag k="amenity" v="police"></tag>
  <tag k="ref:ogdsteiermark" v="1051"></tag>
  <tag k="note:type" v="Bezirkspolizeikommando / Polizeiinspektion/ Bezirk"></tag>
</node>
<node lat="46.7534441705107" lon="15.9728601019418" id="-76">
  <tag k="addr:housenumber" v="81"></tag>
  <tag k="contact:tel" v="+43 59133 6182"></tag>
  <tag k="addr:city" v="Klöch"></tag>
  <tag k="addr:postcode" v="8493"></tag>
  <tag k="amenity" v="police"></tag>
  <tag k="ref:ogdsteiermark" v="1052"></tag>
  <tag k="note:type" v="Grenzpolizeiinspektion (GÜ)"></tag>
</node>
<node lat="46.97210373223385" lon="15.338586428768515" id="-77">
  <tag k="addr:housenumber" v="1"></tag>
  <tag k="contact:tel" v="+43 59133 6145"></tag>
  <tag k="addr:city" v="Lieboch"></tag>
  <tag k="addr:postcode" v="8501"></tag>
  <tag k="addr:street" v="Rupert-Schmid-Platz"></tag>
  <tag k="amenity" v="police"></tag>
  <tag k="ref:ogdsteiermark" v="1053"></tag>
  <tag k="note:type" v="Polizeiinspektion"></tag>
</node>
<node lat="46.94440625034112" lon="15.330591041393674" id="-78">
  <tag k="addr:housenumber" v="11"></tag>
  <tag k="contact:tel" v="+43 59133 6104"></tag>
  <tag k="addr:city" v="Lannach"></tag>
  <tag k="addr:postcode" v="8502"></tag>
  <tag k="addr:street" v="Franz-Kandler-Straße"></tag>
  <tag k="amenity" v="police"></tag>
  <tag k="ref:ogdsteiermark" v="1054"></tag>
  <tag k="note:type" v="Polizeiinspektion"></tag>
</node>
<node lat="46.859788190184815" lon="15.406582750746026" id="-79">
  <tag k="addr:housenumber" v="24"></tag>
  <tag k="contact:tel" v="+43 59133 6105"></tag>
  <tag k="addr:city" v="Preding"></tag>
  <tag k="addr:postcode" v="8504"></tag>
  <tag k="amenity" v="police"></tag>
  <tag k="ref:ogdsteiermark" v="1055"></tag>
  <tag k="note:type" v="Polizeiinspektion"></tag>
</node>
<node lat="47.0727933090895" lon="15.417087694973052" id="-8">
  <tag k="addr:housenumber" v="7"></tag>
  <tag k="contact:tel" v="+43 59133 651760"></tag>
  <tag k="addr:city" v="Graz"></tag>
  <tag k="addr:postcode" v="8020"></tag>
  <tag k="addr:street" v="Europaplatz"></tag>
  <tag k="amenity" v="police"></tag>
  <tag k="ref:ogdsteiermark" v="984"></tag>
  <tag k="note:type" v="Polizeiinspektion"></tag>
</node>
<node lat="46.89415434048809" lon="15.266594012167321" id="-80">
  <tag k="addr:housenumber" v="4"></tag>
  <tag k="contact:tel" v="+43 59133 6112"></tag>
  <tag k="addr:city" v="Stainz"></tag>
  <tag k="addr:postcode" v="8510"></tag>
  <tag k="addr:street" v="Steggasse"></tag>
  <tag k="amenity" v="police"></tag>
  <tag k="ref:ogdsteiermark" v="1056"></tag>
  <tag k="note:type" v="Polizeiinspektion"></tag>
</node>
<node lat="46.92957880052187" lon="15.253129203937194" id="-81">
  <tag k="addr:housenumber" v="21"></tag>
  <tag k="contact:tel" v="+43 59133 6108"></tag>
  <tag k="addr:city" v="St. Stefan/Stainz"></tag>
  <tag k="addr:postcode" v="8511"></tag>
  <tag k="amenity" v="police"></tag>
  <tag k="ref:ogdsteiermark" v="1057"></tag>
  <tag k="note:type" v="Polizeiinspektion"></tag>
</node>
<node lat="46.823879425171384" lon="15.316279975107289" id="-82">
  <tag k="addr:housenumber" v="5"></tag>
  <tag k="contact:tel" v="+43 59133 6103"></tag>
  <tag k="addr:city" v="Groß St. Florian"></tag>
  <tag k="addr:postcode" v="8522"></tag>
  <tag k="addr:street" v="Marktplatz"></tag>
  <tag k="amenity" v="police"></tag>
  <tag k="ref:ogdsteiermark" v="1058"></tag>
  <tag k="note:type" v="Polizeiinspektion"></tag>
</node>
<node lat="46.81776556812085" lon="15.215899845582031" id="-83">
  <tag k="addr:housenumber" v="6"></tag>
  <tag k="contact:tel" v="+43 59133 6100"></tag>
  <tag k="addr:city" v="Deutschlandsberg"></tag>
  <tag k="addr:postcode" v="8530"></tag>
  <tag k="addr:street" v="Bahnhofstraße"></tag>
  <tag k="amenity" v="police"></tag>
  <tag k="ref:ogdsteiermark" v="1059"></tag>
  <tag k="note:type" v="Polizeiinspektion/ Bezirksleitstelle / Bezirkspoli"></tag>
</node>
<node lat="46.75715277003344" lon="15.200425012307916" id="-84">
  <tag k="addr:housenumber" v="17"></tag>
  <tag k="contact:tel" v="+43 59133 6109"></tag>
  <tag k="addr:city" v="Schwanberg"></tag>
  <tag k="addr:postcode" v="8541"></tag>
  <tag k="addr:street" v="Hauptplatz"></tag>
  <tag k="amenity" v="police"></tag>
  <tag k="ref:ogdsteiermark" v="1060"></tag>
  <tag k="note:type" v="Polizeiinspektion"></tag>
</node>
<node lat="46.7163932436835" lon="15.265869733832883" id="-85">
  <tag k="addr:housenumber" v="27"></tag>
  <tag k="contact:tel" v="+43 59133 6113"></tag>
  <tag k="addr:city" v="Wies"></tag>
  <tag k="addr:postcode" v="8551"></tag>
  <tag k="addr:street" v="Altenmarkter Straße"></tag>
  <tag k="amenity" v="police"></tag>
  <tag k="ref:ogdsteiermark" v="1061"></tag>
  <tag k="note:type" v="Polizeiinspektion"></tag>
</node>
<node lat="46.68804568863545" lon="15.245659729481726" id="-86">
  <tag k="addr:housenumber" v="294"></tag>
  <tag k="contact:tel" v="+43 59133 6102"></tag>
  <tag k="addr:city" v="Eibiswald"></tag>
  <tag k="addr:postcode" v="8552"></tag>
  <tag k="amenity" v="police"></tag>
  <tag k="ref:ogdsteiermark" v="1062"></tag>
  <tag k="note:type" v="Polizeiinspektion"></tag>
</node>
<node lat="46.68195673164173" lon="15.073337917059579" id="-87">
  <tag k="addr:housenumber" v="90"></tag>
  <tag k="contact:tel" v="+43 59133 6111"></tag>
  <tag k="addr:city" v="Soboth"></tag>
  <tag k="addr:postcode" v="8554"></tag>
  <tag k="amenity" v="police"></tag>
  <tag k="ref:ogdsteiermark" v="1063"></tag>
  <tag k="note:type" v="Polizeiinspektion mit Außengrenze"></tag>
</node>
<node lat="46.99996975186972" lon="15.285677308342276" id="-88">
  <tag k="addr:housenumber" v="101"></tag>
  <tag k="contact:tel" v="+43 59133 6195"></tag>
  <tag k="addr:city" v="Söding"></tag>
  <tag k="addr:postcode" v="8561"></tag>
  <tag k="addr:street" v="Packer Straße"></tag>
  <tag k="amenity" v="police"></tag>
  <tag k="ref:ogdsteiermark" v="1064"></tag>
  <tag k="note:type" v="Polizeiinspektion"></tag>
</node>
<node lat="46.99181557541496" lon="15.151089351565737" id="-89">
  <tag k="addr:housenumber" v="151"></tag>
  <tag k="contact:tel" v="+43 59133 6197"></tag>
  <tag k="addr:city" v="Ligist"></tag>
  <tag k="addr:postcode" v="8563"></tag>
  <tag k="addr:street" v="Unterwald"></tag>
  <tag k="amenity" v="police"></tag>
  <tag k="ref:ogdsteiermark" v="1065"></tag>
  <tag k="note:type" v="Autobahnpolizeiinspektion"></tag>
</node>
<node lat="47.06219129778949" lon="15.428355806546868" id="-9">
  <tag k="addr:housenumber" v="14"></tag>
  <tag k="contact:tel" v="+43 59133 651920"></tag>
  <tag k="addr:city" v="Graz"></tag>
  <tag k="addr:postcode" v="8020"></tag>
  <tag k="addr:street" v="Karlauerstraße"></tag>
  <tag k="amenity" v="police"></tag>
  <tag k="ref:ogdsteiermark" v="985"></tag>
  <tag k="note:type" v="Polizeiinspektion"></tag>
</node>
<node lat="47.008897601782344" lon="15.21622500934016" id="-90">
  <tag k="addr:housenumber" v="161"></tag>
  <tag k="contact:tel" v="+43 59133 6194"></tag>
  <tag k="addr:city" v="Krottendorf-Gaisfeld"></tag>
  <tag k="addr:postcode" v="8564"></tag>
  <tag k="amenity" v="police"></tag>
  <tag k="ref:ogdsteiermark" v="1066"></tag>
  <tag k="note:type" v="Polizeiinspektion"></tag>
</node>
<node lat="47.04748487789328" lon="15.150367832608358" id="-91">
  <tag k="addr:housenumber" v="1"></tag>
  <tag k="contact:tel" v="+43 59133 6190"></tag>
  <tag k="addr:city" v="Voitsberg"></tag>
  <tag k="addr:postcode" v="8570"></tag>
  <tag k="addr:street" v="Dr-Hubert-Kravcar-Platz"></tag>
  <tag k="amenity" v="police"></tag>
  <tag k="ref:ogdsteiermark" v="1067"></tag>
  <tag k="note:type" v="Bezirkspolizeikommando / Polizeiinspektion/ Bezirk"></tag>
</node>
<node lat="47.063883177598605" lon="15.087852386310418" id="-92">
  <tag k="addr:housenumber" v="1"></tag>
  <tag k="contact:tel" v="+43 59133 6193"></tag>
  <tag k="addr:city" v="Köflach"></tag>
  <tag k="addr:postcode" v="8580"></tag>
  <tag k="addr:street" v="Mühlgasse"></tag>
  <tag k="amenity" v="police"></tag>
  <tag k="ref:ogdsteiermark" v="1068"></tag>
  <tag k="note:type" v="Polizeiinspektion"></tag>
</node>
<node lat="47.02352963947875" lon="15.051942678192272" id="-93">
  <tag k="addr:housenumber" v="46"></tag>
  <tag k="contact:tel" v="+43 59133 6192"></tag>
  <tag k="addr:city" v="Edelschrott"></tag>
  <tag k="addr:postcode" v="8583"></tag>
  <tag k="addr:street" v="Packer Straße"></tag>
  <tag k="amenity" v="police"></tag>
  <tag k="ref:ogdsteiermark" v="1069"></tag>
  <tag k="note:type" v="Polizeiinspektion"></tag>
</node>
<node lat="47.41143629968792" lon="15.270501459310749" id="-94">
  <tag k="addr:housenumber" v="9"></tag>
  <tag k="contact:tel" v="+43 59133 6200305"></tag>
  <tag k="addr:city" v="Bruck/Mur"></tag>
  <tag k="addr:postcode" v="8601"></tag>
  <tag k="addr:street" v="Herzog-Ernst-Gasse"></tag>
  <tag k="amenity" v="police"></tag>
  <tag k="ref:ogdsteiermark" v="1070"></tag>
  <tag k="note:type" v="Polizeiinspektion/ Bezirksleitstelle / Bezirkspoli"></tag>
</node>
<node lat="47.47028603693567" lon="15.163810547546321" id="-95">
  <tag k="addr:housenumber" v="31"></tag>
  <tag k="contact:tel" v="+43 59133 6207"></tag>
  <tag k="addr:city" v="St. Katharein/Laming"></tag>
  <tag k="addr:postcode" v="8611"></tag>
  <tag k="amenity" v="police"></tag>
  <tag k="ref:ogdsteiermark" v="1071"></tag>
  <tag k="note:type" v="Polizeiinspektion"></tag>
</node>
<node lat="47.391381570997694" lon="15.430595667634252" id="-96">
  <tag k="addr:housenumber" v="20"></tag>
  <tag k="contact:tel" v="+43 59133 6201"></tag>
  <tag k="addr:city" v="Breitenau/Hochlantsch"></tag>
  <tag k="addr:postcode" v="8614"></tag>
  <tag k="addr:street" v="St. Jakob"></tag>
  <tag k="amenity" v="police"></tag>
  <tag k="ref:ogdsteiermark" v="1072"></tag>
  <tag k="note:type" v="Polizeiinspektion"></tag>
</node>
<node lat="47.77258506024764" lon="15.31664517338863" id="-97">
  <tag k="addr:housenumber" v="8"></tag>
  <tag k="contact:tel" v="+43 59133 6205"></tag>
  <tag k="addr:city" v="Mariazell"></tag>
  <tag k="addr:postcode" v="8630"></tag>
  <tag k="addr:street" v="Grazer Straße"></tag>
  <tag k="amenity" v="police"></tag>
  <tag k="ref:ogdsteiermark" v="1073"></tag>
  <tag k="note:type" v="Polizeiinspektion"></tag>
</node>
<node lat="47.74161754556234" lon="15.308204761562111" id="-98">
  <tag k="addr:housenumber" v="2"></tag>
  <tag k="contact:tel" v="+43 59133 6202"></tag>
  <tag k="addr:city" v="Gußwerk"></tag>
  <tag k="addr:postcode" v="8632"></tag>
  <tag k="addr:street" v="Am Postplatzl"></tag>
  <tag k="amenity" v="police"></tag>
  <tag k="ref:ogdsteiermark" v="1074"></tag>
  <tag k="note:type" v="Polizeiinspektion"></tag>
</node>
<node lat="47.47308114661813" lon="15.364669878332538" id="-99">
  <tag k="addr:housenumber" v="1A"></tag>
  <tag k="contact:tel" v="+43 59133 6208"></tag>
  <tag k="addr:city" v="St. Marein/Mürztal"></tag>
  <tag k="addr:postcode" v="8641"></tag>
  <tag k="addr:street" v="Hauptstraße"></tag>
  <tag k="amenity" v="police"></tag>
  <tag k="ref:ogdsteiermark" v="1075"></tag>
  <tag k="note:type" v="Polizeiinspektion"></tag>
</node>
</osm>